{"type":"FeatureCollection","features":[{"type":"Feature","geometry":{"type":"Polygon","coordinates":[[[77.60054,12.97866],[77.59982,12.97991],[77.59853,12.98087],[77.59679,12.98146],[77.59473,12.98163],[77.59253,12.98136],[77.59035,12.98069],[77.58838,12.97966],[77.58678,12.97836],[77.58567,12.97689],[77.58515,12.97538],[77.58526,12.97394],[77.58598,12.97269],[77.58727,12.97173],[77.58901,12.97114],[77.59107,12.97097],[77.59327,12.97124],[77.59545,12.97191],[77.59742,12.97294],[77.59902,12.97424],[77.60013,12.97571],[77.60065,12.97722],[77.60054,12.97866]]]},"properties":{"id":"cubbon-park","name":"Cubbon Park"}},{"type":"Feature","geometry":{"type":"Polygon","coordinates":[[[77.59177,12.9514],[77.59134,12.95277],[77.59039,12.95398],[77.58898,12.95492],[77.58724,12.95552],[77.5853,12.95572],[77.58331,12.95552],[77.58145,12.95494],[77.57986,12.954],[77.57867,12.9528],[77.57798,12.95143],[77.57783,12.95],[77.57826,12.94863],[77.57921,12.94742],[77.58062,12.94648],[77.58236,12.94588],[77.5843,12.94568],[77.58629,12.94588],[77.58815,12.94646],[77.58974,12.9474],[77.59093,12.9486],[77.59162,12.94997],[77.59177,12.9514]]]},"properties":{"id":"lalbagh","name":"Lalbagh"}},{"type":"Feature","geometry":{"type":"Polygon","coordinates":[[[77.54878,12.89479],[77.54747,12.89633],[77.54557,12.89735],[77.54321,12.89778],[77.54059,12.89758],[77.53793,12.89676],[77.53543,12.8954],[77.5333,12.8936],[77.53172,12.8915],[77.5308,12.88929],[77.53063,12.88713],[77.53122,12.88521],[77.53253,12.88367],[77.53443,12.88265],[77.53679,12.88222],[77.53941,12.88242],[77.54207,12.88324],[77.54457,12.8846],[77.5467,12.8864],[77.54828,12.8885],[77.5492,12.89071],[77.54937,12.89287],[77.54878,12.89479]]]},"properties":{"id":"bannerghatta-green","name":"Turahalli Forest"}}]}