{"type":"FeatureCollection","features":[{"type":"Feature","geometry":{"type":"LineString","coordinates":[[77.597,13.0358],[77.60094,13.03502],[77.60415,13.03307],[77.60783,13.03216],[77.61142,13.03101],[77.61449,13.02958],[77.61871,13.02916],[77.6222,13.02802],[77.62515,13.02674],[77.62851,13.02552],[77.63245,13.02415],[77.63633,13.02323],[77.63989,13.02106],[77.64264,13.01877],[77.64673,13.01683],[77.65014,13.01515],[77.65355,13.01364],[77.65663,13.01174],[77.66086,13.00994],[77.66378,13.00742],[77.66765,13.00561],[77.6711,13.00377],[77.67448,13.00171],[77.67819,12.99975],[77.68061,12.997],[77.68322,12.99396],[77.68579,12.9918],[77.6883,12.98859],[77.69028,12.98571],[77.69303,12.98318],[77.69517,12.97981],[77.69762,12.97674],[77.69856,12.97363],[77.69947,12.96949],[77.70024,12.96653],[77.70017,12.96288],[77.70112,12.95931],[77.69827,12.9562],[77.69627,12.95279],[77.69362,12.94962],[77.69146,12.9463],[77.68951,12.94341],[77.68672,12.93958],[77.68454,12.93741],[77.68296,12.93429],[77.68058,12.93162],[77.67807,12.92862],[77.67627,12.92625],[77.67249,12.92473],[77.66924,12.92249],[77.66558,12.92094],[77.66192,12.91926],[77.65835,12.91772],[77.65538,12.91685],[77.65164,12.91524],[77.64768,12.9134],[77.6444,12.91116],[77.64074,12.91233],[77.63737,12.91347],[77.63373,12.91425],[77.62973,12.91492],[77.62641,12.91626],[77.6229,12.9172]]},"properties":{"id":"orr-east","name":"Outer Ring Road east","klass":"ring"}},{"type":"Feature","geometry":{"type":"LineString","coordinates":[[77.6229,12.9172],[77.61965,12.91643],[77.61568,12.9145],[77.61218,12.9136],[77.60859,12.91246],[77.60447,12.91105],[77.60152,12.91064],[77.59782,12.90952],[77.59359,12.90825],[77.58962,12.90919],[77.58624,12.90999],[77.58279,12.91123],[77.57907,12.91198],[77.57454,12.9126],[77.57135,12.91358],[77.56748,12.91482],[77.56361,12.91622],[77.55941,12.91724],[77.55636,12.91836],[77.55318,12.92045],[77.55095,12.92326],[77.5483,12.92604],[77.54558,12.92859],[77.54319,12.93125],[77.54051,12.93407],[77.53802,12.93661],[77.53549,12.94002],[77.5329,12.94239],[77.52978,12.94508],[77.52816,12.94881],[77.52592,12.95168],[77.524,12.95487],[77.52246,12.95871],[77.5209,12.96153],[77.51919,12.96552],[77.51665,12.96883],[77.51512,12.97221],[77.51549,12.97595],[77.51672,12.97939],[77.51729,12.98307],[77.51835,12.9866],[77.51962,12.99056],[77.52005,12.99358],[77.52092,12.99788],[77.52239,13.00122],[77.52306,13.00502],[77.52484,13.00775],[77.52732,13.0111],[77.52918,13.01411],[77.53156,13.01639],[77.53354,13.01937],[77.53551,13.02221],[77.53759,13.0252],[77.54025,13.02885],[77.54358,13.03013],[77.54668,13.03118],[77.55047,13.03183],[77.55398,13.03336],[77.55778,13.03484],[77.56131,13.03598],[77.56449,13.03701],[77.56833,13.0387],[77.57217,13.04013],[77.57598,13.03957],[77.57883,13.03917],[77.58249,13.03827],[77.58612,13.0377],[77.59011,13.03711],[77.59363,13.03623],[77.597,13.0358]]},"properties":{"id":"orr-west","name":"Outer Ring Road west","klass":"ring"}},{"type":"Feature","geometry":{"type":"LineString","coordinates":[[77.606,12.975],[77.60641,12.97089],[77.60672,12.96737],[77.6071,12.96313],[77.6081,12.95945],[77.60827,12.95575],[77.60898,12.95174],[77.60919,12.94791],[77.60962,12.94414],[77.61006,12.94006],[77.6122,12.93651],[77.61381,12.93326],[77.6156,12.93042],[77.61742,12.92669],[77.61931,12.92359],[77.6208,12.92052],[77.62285,12.91711],[77.62198,12.91386],[77.62094,12.91092],[77.6199,12.90751],[77.61894,12.90434],[77.61775,12.90128],[77.6206,12.89799],[77.62288,12.8945],[77.62502,12.89157],[77.6272,12.8887],[77.62976,12.88529],[77.63205,12.88223],[77.63453,12.87913],[77.63694,12.87628],[77.639,12.87302],[77.64169,12.87003],[77.64376,12.86717],[77.64607,12.86377],[77.64871,12.86051],[77.65105,12.85767],[77.65316,12.85432],[77.65569,12.85136],[77.65775,12.84847],[77.6602,12.8452]]},"properties":{"id":"hosur-road","name":"Hosur Road","klass":"arterial"}},{"type":"Feature","geometry":{"type":"LineString","coordinates":[[77.5929,12.9763],[77.59246,12.97994],[77.59154,12.9828],[77.59093,12.98636],[77.59026,12.98975],[77.58924,12.99296],[77.58899,12.99684],[77.58825,13.00025],[77.58886,13.00349],[77.58974,13.00679],[77.591,13.00999],[77.59222,13.01349],[77.59326,13.01666],[77.59376,13.01973],[77.59475,13.02288],[77.59529,13.0262],[77.59584,13.02963],[77.59615,13.0328],[77.59724,13.03604],[77.59718,13.03944],[77.59777,13.04331],[77.59807,13.04716],[77.59832,13.05086],[77.5988,13.05463],[77.59907,13.05851],[77.59948,13.06221],[77.59987,13.06648],[77.6,13.07]]},"properties":{"id":"bellary-road","name":"Bellary Road","klass":"arterial"}},{"type":"Feature","geometry":{"type":"LineString","coordinates":[[77.606,12.975],[77.60947,12.9732],[77.61331,12.9717],[77.61674,12.97043],[77.62039,12.96891],[77.62388,12.9669],[77.62803,12.96588],[77.63124,12.96392],[77.63503,12.96277],[77.63888,12.96105],[77.64227,12.96061],[77.64575,12.96089],[77.64951,12.96033],[77.65292,12.96043],[77.65637,12.96033],[77.65981,12.96018],[77.66356,12.96014],[77.66757,12.95996],[77.67145,12.95993],[77.67504,12.95954],[77.67866,12.95967],[77.68266,12.95955],[77.68629,12.95925],[77.69013,12.95956],[77.6938,12.95944],[77.69741,12.95932],[77.70098,12.96005],[77.70518,12.96033],[77.70862,12.96126],[77.71263,12.9624],[77.71619,12.96283],[77.72004,12.96358],[77.72375,12.96457],[77.72773,12.96541],[77.73122,12.96579],[77.73476,12.96672],[77.73845,12.96728],[77.74238,12.96827],[77.74616,12.96893],[77.75,12.9698]]},"properties":{"id":"old-airport-road","name":"Old Airport Road","klass":"arterial"}},{"type":"Feature","geometry":{"type":"LineString","coordinates":[[77.6245,12.9352],[77.62811,12.93425],[77.63124,12.93253],[77.63468,12.9315],[77.63806,12.93031],[77.64109,12.92893],[77.64489,12.92823],[77.6488,12.928],[77.65236,12.92766],[77.65619,12.92737],[77.6604,12.92699],[77.66457,12.92691],[77.66856,12.92649],[77.67201,12.92598],[77.67635,12.92572],[77.67967,12.92428],[77.683,12.92295],[77.68609,12.92136],[77.68996,12.91984],[77.69295,12.91784],[77.69658,12.91631],[77.69993,12.91476],[77.70323,12.91306],[77.70675,12.91143],[77.71,12.91]]},"properties":{"id":"sarjapur-road","name":"Sarjapur Road","klass":"arterial"}},{"type":"Feature","geometry":{"type":"LineString","coordinates":[[77.5848,12.9507],[77.58529,12.94663],[77.58614,12.94285],[77.58659,12.93932],[77.58726,12.93553],[77.58776,12.93124],[77.58893,12.92796],[77.58916,12.92373],[77.58996,12.9203],[77.58896,12.91708],[77.58757,12.91371],[77.58628,12.91107],[77.58526,12.90758],[77.58573,12.90437],[77.58625,12.90096],[77.58675,12.89749],[77.58737,12.89408],[77.58825,12.89053],[77.58901,12.88713],[77.58947,12.88336],[77.59,12.88]]},"properties":{"id":"bannerghatta-road","name":"Bannerghatta Road","klass":"arterial"}},{"type":"Feature","geometry":{"type":"LineString","coordinates":[[77.5757,12.9633],[77.57432,12.95994],[77.57298,12.95641],[77.57174,12.95264],[77.57017,12.94893],[77.56873,12.94545],[77.56791,12.94195],[77.56649,12.93861],[77.56476,12.93515],[77.56345,12.93138],[77.56232,12.92759],[77.56101,12.92436],[77.55999,12.92095],[77.55831,12.91726],[77.55742,12.91376],[77.5559,12.91002],[77.55462,12.90644],[77.55349,12.90286],[77.55242,12.89949],[77.55126,12.89558],[77.5502,12.8919],[77.54886,12.8887],[77.548,12.885]]},"properties":{"id":"kanakapura-road","name":"Kanakapura Road","klass":"arterial"}},{"type":"Feature","geometry":{"type":"LineString","coordinates":[[77.5757,12.9633],[77.57224,12.96182],[77.56869,12.96094],[77.5652,12.95933],[77.56234,12.95829],[77.55863,12.95721],[77.55548,12.95584],[77.55182,12.95464],[77.54839,12.95351],[77.54496,12.95206],[77.54152,12.95052],[77.53755,12.94927],[77.53376,12.94844],[77.53001,12.94672],[77.52632,12.94563],[77.52223,12.94456],[77.5187,12.94316],[77.51506,12.9419],[77.51111,12.94142],[77.50716,12.94047],[77.50329,12.93977],[77.49919,12.93917],[77.49582,12.9382],[77.49186,12.93703],[77.48777,12.93643],[77.48371,12.93588],[77.48,12.935]]},"properties":{"id":"mysore-road","name":"Mysore Road","klass":"arterial"}},{"type":"Feature","geometry":{"type":"LineString","coordinates":[[77.5713,12.9767],[77.56734,12.97689],[77.56329,12.97768],[77.55929,12.97774],[77.55593,12.97836],[77.55173,12.97895],[77.54808,12.97925],[77.54391,12.97972],[77.53998,12.98025],[77.53621,12.98044],[77.53277,12.98052],[77.5288,12.9809],[77.52501,12.98169],[77.52126,12.9816],[77.51757,12.98213],[77.51348,12.98269],[77.50995,12.98291],[77.50617,12.98323],[77.50222,12.98387],[77.49827,12.98403],[77.4944,12.98443],[77.49031,12.98495],[77.48693,12.98509],[77.48297,12.98503],[77.47888,12.98554],[77.475,12.986]]},"properties":{"id":"magadi-road","name":"Magadi Road","klass":"arterial"}},{"type":"Feature","geometry":{"type":"LineString","coordinates":[[77.5713,12.9767],[77.56849,12.97859],[77.5656,12.98108],[77.56276,12.98284],[77.56055,12.98517],[77.5575,12.98746],[77.55501,12.98946],[77.552,12.99163],[77.55078,12.99544],[77.54956,12.99894],[77.54867,13.00234],[77.54725,13.00603],[77.54601,13.01014],[77.54481,13.01336],[77.54367,13.01721],[77.54213,13.02108],[77.54115,13.02462],[77.54006,13.0283],[77.53778,13.03156],[77.5355,13.03434],[77.53329,13.03737],[77.53086,13.0405],[77.52915,13.04327],[77.52686,13.04583],[77.52443,13.04896],[77.52204,13.05214],[77.52,13.055]]},"properties":{"id":"tumkur-road","name":"Tumkur Road","klass":"arterial"}},{"type":"Feature","geometry":{"type":"LineString","coordinates":[[77.6408,12.9784],[77.64432,12.97945],[77.64788,12.98033],[77.65154,12.98097],[77.65487,12.98167],[77.65834,12.9826],[77.66242,12.98351],[77.6659,12.98458],[77.66907,12.98553],[77.67261,12.9862],[77.67633,12.98686],[77.67987,12.98807],[77.68388,12.98724],[77.68724,12.98612],[77.69138,12.98519],[77.6949,12.98402],[77.69851,12.98301],[77.70228,12.982],[77.7061,12.9812],[77.70983,12.97987],[77.71355,12.97883],[77.71699,12.97828],[77.72069,12.9773],[77.72482,12.97653],[77.72801,12.97564],[77.73198,12.97473],[77.73568,12.97363],[77.73882,12.9725],[77.74254,12.97195],[77.74658,12.971],[77.75,12.9698]]},"properties":{"id":"whitefield-road","name":"Whitefield Road","klass":"arterial"}},{"type":"Feature","geometry":{"type":"LineString","coordinates":[[77.5929,12.9763],[77.59609,12.97578],[77.59954,12.97572],[77.60266,12.9754],[77.60613,12.97528],[77.60916,12.97652],[77.6117,12.97753],[77.61496,12.9791],[77.61787,12.98074],[77.62023,12.98215],[77.62388,12.98114],[77.62747,12.9809],[77.63079,12.9801],[77.63391,12.97937],[77.63761,12.97929],[77.6408,12.9784]]},"properties":{"id":"mg-road","name":"MG Road and Cantonment","klass":"connector"}},{"type":"Feature","geometry":{"type":"LineString","coordinates":[[77.606,12.975],[77.61002,12.97381],[77.61333,12.97147],[77.61709,12.97015],[77.62077,12.96859],[77.62393,12.96677],[77.62824,12.96594],[77.63181,12.9644],[77.63486,12.96272],[77.6383,12.96109],[77.63693,12.95768],[77.63548,12.95471],[77.63377,12.95124],[77.63124,12.94765],[77.63006,12.94442],[77.62819,12.94145],[77.62632,12.93863],[77.62413,12.93544],[77.62126,12.93676],[77.61708,12.93735],[77.61385,12.93866],[77.6102,12.93994],[77.60682,12.94179],[77.60377,12.94375],[77.60043,12.94587],[77.59728,12.94771],[77.59409,12.95042],[77.5926,12.95342],[77.59058,12.95675],[77.58933,12.96043],[77.58747,12.96326],[77.58592,12.96641],[77.58476,12.97021],[77.58777,12.97175],[77.59064,12.97447],[77.5929,12.9763]]},"properties":{"id":"inner-ring","name":"Inner Ring Road","klass":"ring"}}]}