{"type":"FeatureCollection","features":[{"type":"Feature","geometry":{"type":"LineString","coordinates":[[77.57828,12.83577],[77.59328,12.83642]]},"properties":{"klass":"minor"}},{"type":"Feature","geometry":{"type":"LineString","coordinates":[[77.59402,12.83697],[77.60902,12.83645]]},"properties":{"klass":"minor"}},{"type":"Feature","geometry":{"type":"LineString","coordinates":[[77.62288,12.83861],[77.63788,12.83814]]},"properties":{"klass":"minor"}},{"type":"Feature","geometry":{"type":"LineString","coordinates":[[77.63775,12.83659],[77.65275,12.83556]]},"properties":{"klass":"minor"}},{"type":"Feature","geometry":{"type":"LineString","coordinates":[[77.6675,12.8369],[77.6825,12.83588]]},"properties":{"klass":"minor"}},{"type":"Feature","geometry":{"type":"LineString","coordinates":[[77.68255,12.83762],[77.69755,12.83839]]},"properties":{"klass":"minor"}},{"type":"Feature","geometry":{"type":"LineString","coordinates":[[77.53198,12.84549],[77.54698,12.84618]]},"properties":{"klass":"minor"}},{"type":"Feature","geometry":{"type":"LineString","coordinates":[[77.57897,12.8467],[77.59397,12.847]]},"properties":{"klass":"minor"}},{"type":"Feature","geometry":{"type":"LineString","coordinates":[[77.60702,12.84641],[77.62202,12.84571]]},"properties":{"klass":"minor"}},{"type":"Feature","geometry":{"type":"LineString","coordinates":[[77.62173,12.84643],[77.63673,12.84637]]},"properties":{"klass":"minor"}},{"type":"Feature","geometry":{"type":"LineString","coordinates":[[77.63777,12.8454],[77.65277,12.84617]]},"properties":{"klass":"minor"}},{"type":"Feature","geometry":{"type":"LineString","coordinates":[[77.65135,12.84549],[77.66635,12.846]]},"properties":{"klass":"minor"}},{"type":"Feature","geometry":{"type":"LineString","coordinates":[[77.66586,12.84315],[77.68086,12.84403]]},"properties":{"klass":"minor"}},{"type":"Feature","geometry":{"type":"LineString","coordinates":[[77.69612,12.84452],[77.71112,12.84369]]},"properties":{"klass":"minor"}},{"type":"Feature","geometry":{"type":"LineString","coordinates":[[77.57605,12.85355],[77.59105,12.85431]]},"properties":{"klass":"minor"}},{"type":"Feature","geometry":{"type":"LineString","coordinates":[[77.62126,12.85368],[77.63626,12.85315]]},"properties":{"klass":"minor"}},{"type":"Feature","geometry":{"type":"LineString","coordinates":[[77.65194,12.85398],[77.66694,12.85473]]},"properties":{"klass":"minor"}},{"type":"Feature","geometry":{"type":"LineString","coordinates":[[77.51597,12.85815],[77.53097,12.8591]]},"properties":{"klass":"minor"}},{"type":"Feature","geometry":{"type":"LineString","coordinates":[[77.62168,12.85925],[77.63668,12.85823]]},"properties":{"klass":"minor"}},{"type":"Feature","geometry":{"type":"LineString","coordinates":[[77.71214,12.86062],[77.72714,12.86059]]},"properties":{"klass":"minor"}},{"type":"Feature","geometry":{"type":"LineString","coordinates":[[77.72679,12.85847],[77.74179,12.85885]]},"properties":{"klass":"minor"}},{"type":"Feature","geometry":{"type":"LineString","coordinates":[[77.75566,12.85928],[77.77066,12.85884]]},"properties":{"klass":"minor"}},{"type":"Feature","geometry":{"type":"LineString","coordinates":[[77.50427,12.86919],[77.51927,12.87005]]},"properties":{"klass":"minor"}},{"type":"Feature","geometry":{"type":"LineString","coordinates":[[77.53244,12.86834],[77.54744,12.86876]]},"properties":{"klass":"minor"}},{"type":"Feature","geometry":{"type":"LineString","coordinates":[[77.54693,12.86584],[77.56193,12.86649]]},"properties":{"klass":"minor"}},{"type":"Feature","geometry":{"type":"LineString","coordinates":[[77.59099,12.86797],[77.60599,12.86851]]},"properties":{"klass":"minor"}},{"type":"Feature","geometry":{"type":"LineString","coordinates":[[77.65165,12.86915],[77.66665,12.86882]]},"properties":{"klass":"minor"}},{"type":"Feature","geometry":{"type":"LineString","coordinates":[[77.68248,12.86887],[77.69748,12.86955]]},"properties":{"klass":"minor"}},{"type":"Feature","geometry":{"type":"LineString","coordinates":[[77.47434,12.87533],[77.48934,12.87517]]},"properties":{"klass":"minor"}},{"type":"Feature","geometry":{"type":"LineString","coordinates":[[77.50242,12.87347],[77.51742,12.87315]]},"properties":{"klass":"minor"}},{"type":"Feature","geometry":{"type":"LineString","coordinates":[[77.53364,12.87393],[77.54864,12.87414]]},"properties":{"klass":"minor"}},{"type":"Feature","geometry":{"type":"LineString","coordinates":[[77.54681,12.8733],[77.56181,12.8728]]},"properties":{"klass":"minor"}},{"type":"Feature","geometry":{"type":"LineString","coordinates":[[77.57597,12.87362],[77.59097,12.87366]]},"properties":{"klass":"minor"}},{"type":"Feature","geometry":{"type":"LineString","coordinates":[[77.60704,12.87376],[77.62204,12.87361]]},"properties":{"klass":"minor"}},{"type":"Feature","geometry":{"type":"LineString","coordinates":[[77.62246,12.87541],[77.63746,12.87618]]},"properties":{"klass":"minor"}},{"type":"Feature","geometry":{"type":"LineString","coordinates":[[77.63704,12.87394],[77.65204,12.87503]]},"properties":{"klass":"minor"}},{"type":"Feature","geometry":{"type":"LineString","coordinates":[[77.6808,12.87614],[77.6958,12.87696]]},"properties":{"klass":"minor"}},{"type":"Feature","geometry":{"type":"LineString","coordinates":[[77.74133,12.87579],[77.75633,12.87658]]},"properties":{"klass":"minor"}},{"type":"Feature","geometry":{"type":"LineString","coordinates":[[77.54633,12.88374],[77.56133,12.88307]]},"properties":{"klass":"minor"}},{"type":"Feature","geometry":{"type":"LineString","coordinates":[[77.56411,12.88341],[77.57911,12.8845]]},"properties":{"klass":"minor"}},{"type":"Feature","geometry":{"type":"LineString","coordinates":[[77.62391,12.88386],[77.63891,12.88351]]},"properties":{"klass":"minor"}},{"type":"Feature","geometry":{"type":"LineString","coordinates":[[77.63603,12.88243],[77.65103,12.88306]]},"properties":{"klass":"minor"}},{"type":"Feature","geometry":{"type":"LineString","coordinates":[[77.65238,12.88254],[77.66738,12.88205]]},"properties":{"klass":"minor"}},{"type":"Feature","geometry":{"type":"LineString","coordinates":[[77.66675,12.88414],[77.68175,12.88458]]},"properties":{"klass":"minor"}},{"type":"Feature","geometry":{"type":"LineString","coordinates":[[77.69716,12.88217],[77.71216,12.883]]},"properties":{"klass":"minor"}},{"type":"Feature","geometry":{"type":"LineString","coordinates":[[77.71149,12.88235],[77.72649,12.88141]]},"properties":{"klass":"minor"}},{"type":"Feature","geometry":{"type":"LineString","coordinates":[[77.75791,12.88264],[77.77291,12.88258]]},"properties":{"klass":"minor"}},{"type":"Feature","geometry":{"type":"LineString","coordinates":[[77.48818,12.89158],[77.50318,12.89091]]},"properties":{"klass":"minor"}},{"type":"Feature","geometry":{"type":"LineString","coordinates":[[77.51671,12.88874],[77.53171,12.88868]]},"properties":{"klass":"minor"}},{"type":"Feature","geometry":{"type":"LineString","coordinates":[[77.56272,12.89103],[77.57772,12.89037]]},"properties":{"klass":"minor"}},{"type":"Feature","geometry":{"type":"LineString","coordinates":[[77.57819,12.89041],[77.59319,12.89088]]},"properties":{"klass":"minor"}},{"type":"Feature","geometry":{"type":"LineString","coordinates":[[77.60686,12.88943],[77.62186,12.88891]]},"properties":{"klass":"minor"}},{"type":"Feature","geometry":{"type":"LineString","coordinates":[[77.65132,12.88866],[77.66632,12.88922]]},"properties":{"klass":"minor"}},{"type":"Feature","geometry":{"type":"LineString","coordinates":[[77.66745,12.88937],[77.68245,12.88992]]},"properties":{"klass":"minor"}},{"type":"Feature","geometry":{"type":"LineString","coordinates":[[77.69701,12.89119],[77.71201,12.89038]]},"properties":{"klass":"minor"}},{"type":"Feature","geometry":{"type":"LineString","coordinates":[[77.50391,12.8989],[77.51891,12.89899]]},"properties":{"klass":"minor"}},{"type":"Feature","geometry":{"type":"LineString","coordinates":[[77.51668,12.89917],[77.53168,12.89891]]},"properties":{"klass":"minor"}},{"type":"Feature","geometry":{"type":"LineString","coordinates":[[77.59352,12.8959],[77.60852,12.89641]]},"properties":{"klass":"minor"}},{"type":"Feature","geometry":{"type":"LineString","coordinates":[[77.6229,12.89683],[77.6379,12.89703]]},"properties":{"klass":"minor"}},{"type":"Feature","geometry":{"type":"LineString","coordinates":[[77.63705,12.89825],[77.65205,12.89742]]},"properties":{"klass":"minor"}},{"type":"Feature","geometry":{"type":"LineString","coordinates":[[77.65209,12.89752],[77.66709,12.89671]]},"properties":{"klass":"minor"}},{"type":"Feature","geometry":{"type":"LineString","coordinates":[[77.72574,12.89919],[77.74074,12.90002]]},"properties":{"klass":"minor"}},{"type":"Feature","geometry":{"type":"LineString","coordinates":[[77.75607,12.89632],[77.77107,12.89725]]},"properties":{"klass":"minor"}},{"type":"Feature","geometry":{"type":"LineString","coordinates":[[77.50194,12.90393],[77.51694,12.90355]]},"properties":{"klass":"minor"}},{"type":"Feature","geometry":{"type":"LineString","coordinates":[[77.54762,12.90631],[77.56262,12.90561]]},"properties":{"klass":"minor"}},{"type":"Feature","geometry":{"type":"LineString","coordinates":[[77.65393,12.9054],[77.66893,12.9054]]},"properties":{"klass":"minor"}},{"type":"Feature","geometry":{"type":"LineString","coordinates":[[77.66664,12.90615],[77.68164,12.90598]]},"properties":{"klass":"minor"}},{"type":"Feature","geometry":{"type":"LineString","coordinates":[[77.69834,12.90612],[77.71334,12.90524]]},"properties":{"klass":"minor"}},{"type":"Feature","geometry":{"type":"LineString","coordinates":[[77.75711,12.90586],[77.77211,12.90644]]},"properties":{"klass":"minor"}},{"type":"Feature","geometry":{"type":"LineString","coordinates":[[77.5157,12.9127],[77.5307,12.91331]]},"properties":{"klass":"minor"}},{"type":"Feature","geometry":{"type":"LineString","coordinates":[[77.53118,12.91167],[77.54618,12.91271]]},"properties":{"klass":"minor"}},{"type":"Feature","geometry":{"type":"LineString","coordinates":[[77.54716,12.91242],[77.56216,12.9126]]},"properties":{"klass":"minor"}},{"type":"Feature","geometry":{"type":"LineString","coordinates":[[77.56407,12.91338],[77.57907,12.91443]]},"properties":{"klass":"minor"}},{"type":"Feature","geometry":{"type":"LineString","coordinates":[[77.59161,12.91106],[77.60661,12.91104]]},"properties":{"klass":"minor"}},{"type":"Feature","geometry":{"type":"LineString","coordinates":[[77.6064,12.91311],[77.6214,12.912]]},"properties":{"klass":"minor"}},{"type":"Feature","geometry":{"type":"LineString","coordinates":[[77.62194,12.91267],[77.63694,12.91325]]},"properties":{"klass":"minor"}},{"type":"Feature","geometry":{"type":"LineString","coordinates":[[77.63851,12.91317],[77.65351,12.91422]]},"properties":{"klass":"minor"}},{"type":"Feature","geometry":{"type":"LineString","coordinates":[[77.65063,12.91162],[77.66563,12.91163]]},"properties":{"klass":"minor"}},{"type":"Feature","geometry":{"type":"LineString","coordinates":[[77.68303,12.91436],[77.69803,12.91357]]},"properties":{"klass":"minor"}},{"type":"Feature","geometry":{"type":"LineString","coordinates":[[77.48869,12.91877],[77.50369,12.91965]]},"properties":{"klass":"minor"}},{"type":"Feature","geometry":{"type":"LineString","coordinates":[[77.54812,12.91939],[77.56312,12.91919]]},"properties":{"klass":"minor"}},{"type":"Feature","geometry":{"type":"LineString","coordinates":[[77.57573,12.91927],[77.59073,12.91927]]},"properties":{"klass":"minor"}},{"type":"Feature","geometry":{"type":"LineString","coordinates":[[77.59296,12.91982],[77.60796,12.91963]]},"properties":{"klass":"minor"}},{"type":"Feature","geometry":{"type":"LineString","coordinates":[[77.60775,12.92149],[77.62275,12.92121]]},"properties":{"klass":"minor"}},{"type":"Feature","geometry":{"type":"LineString","coordinates":[[77.62137,12.92081],[77.63637,12.92058]]},"properties":{"klass":"minor"}},{"type":"Feature","geometry":{"type":"LineString","coordinates":[[77.63772,12.91877],[77.65272,12.91916]]},"properties":{"klass":"minor"}},{"type":"Feature","geometry":{"type":"LineString","coordinates":[[77.65312,12.92055],[77.66812,12.91956]]},"properties":{"klass":"minor"}},{"type":"Feature","geometry":{"type":"LineString","coordinates":[[77.69803,12.91899],[77.71303,12.91825]]},"properties":{"klass":"minor"}},{"type":"Feature","geometry":{"type":"LineString","coordinates":[[77.71243,12.92087],[77.72743,12.92091]]},"properties":{"klass":"minor"}},{"type":"Feature","geometry":{"type":"LineString","coordinates":[[77.72811,12.9196],[77.74311,12.91855]]},"properties":{"klass":"minor"}},{"type":"Feature","geometry":{"type":"LineString","coordinates":[[77.48623,12.92751],[77.50123,12.92644]]},"properties":{"klass":"minor"}},{"type":"Feature","geometry":{"type":"LineString","coordinates":[[77.51636,12.92612],[77.53136,12.92614]]},"properties":{"klass":"minor"}},{"type":"Feature","geometry":{"type":"LineString","coordinates":[[77.53368,12.92604],[77.54868,12.92617]]},"properties":{"klass":"minor"}},{"type":"Feature","geometry":{"type":"LineString","coordinates":[[77.54881,12.92927],[77.56381,12.93005]]},"properties":{"klass":"minor"}},{"type":"Feature","geometry":{"type":"LineString","coordinates":[[77.56132,12.92722],[77.57632,12.92663]]},"properties":{"klass":"minor"}},{"type":"Feature","geometry":{"type":"LineString","coordinates":[[77.57919,12.9268],[77.59419,12.92614]]},"properties":{"klass":"minor"}},{"type":"Feature","geometry":{"type":"LineString","coordinates":[[77.59326,12.92612],[77.60826,12.92541]]},"properties":{"klass":"minor"}},{"type":"Feature","geometry":{"type":"LineString","coordinates":[[77.62302,12.92764],[77.63802,12.9281]]},"properties":{"klass":"minor"}},{"type":"Feature","geometry":{"type":"LineString","coordinates":[[77.63804,12.92866],[77.65304,12.92902]]},"properties":{"klass":"minor"}},{"type":"Feature","geometry":{"type":"LineString","coordinates":[[77.66627,12.92748],[77.68127,12.92851]]},"properties":{"klass":"minor"}},{"type":"Feature","geometry":{"type":"LineString","coordinates":[[77.68173,12.92809],[77.69673,12.92841]]},"properties":{"klass":"minor"}},{"type":"Feature","geometry":{"type":"LineString","coordinates":[[77.69605,12.9284],[77.71105,12.92822]]},"properties":{"klass":"minor"}},{"type":"Feature","geometry":{"type":"LineString","coordinates":[[77.77257,12.92565],[77.78757,12.92474]]},"properties":{"klass":"minor"}},{"type":"Feature","geometry":{"type":"LineString","coordinates":[[77.53413,12.93476],[77.54913,12.93479]]},"properties":{"klass":"minor"}},{"type":"Feature","geometry":{"type":"LineString","coordinates":[[77.54647,12.93467],[77.56147,12.93368]]},"properties":{"klass":"minor"}},{"type":"Feature","geometry":{"type":"LineString","coordinates":[[77.56416,12.93621],[77.57916,12.93709]]},"properties":{"klass":"minor"}},{"type":"Feature","geometry":{"type":"LineString","coordinates":[[77.57808,12.93582],[77.59308,12.93494]]},"properties":{"klass":"minor"}},{"type":"Feature","geometry":{"type":"LineString","coordinates":[[77.59126,12.93518],[77.60626,12.93472]]},"properties":{"klass":"minor"}},{"type":"Feature","geometry":{"type":"LineString","coordinates":[[77.60646,12.93437],[77.62146,12.93404]]},"properties":{"klass":"minor"}},{"type":"Feature","geometry":{"type":"LineString","coordinates":[[77.62134,12.93384],[77.63634,12.93407]]},"properties":{"klass":"minor"}},{"type":"Feature","geometry":{"type":"LineString","coordinates":[[77.6369,12.93678],[77.6519,12.9369]]},"properties":{"klass":"minor"}},{"type":"Feature","geometry":{"type":"LineString","coordinates":[[77.66794,12.93654],[77.68294,12.93592]]},"properties":{"klass":"minor"}},{"type":"Feature","geometry":{"type":"LineString","coordinates":[[77.69597,12.93605],[77.71097,12.93585]]},"properties":{"klass":"minor"}},{"type":"Feature","geometry":{"type":"LineString","coordinates":[[77.71381,12.93333],[77.72881,12.93375]]},"properties":{"klass":"minor"}},{"type":"Feature","geometry":{"type":"LineString","coordinates":[[77.72609,12.93463],[77.74109,12.93564]]},"properties":{"klass":"minor"}},{"type":"Feature","geometry":{"type":"LineString","coordinates":[[77.74084,12.93476],[77.75584,12.93492]]},"properties":{"klass":"minor"}},{"type":"Feature","geometry":{"type":"LineString","coordinates":[[77.48923,12.94086],[77.50423,12.93977]]},"properties":{"klass":"minor"}},{"type":"Feature","geometry":{"type":"LineString","coordinates":[[77.50226,12.94068],[77.51726,12.94158]]},"properties":{"klass":"minor"}},{"type":"Feature","geometry":{"type":"LineString","coordinates":[[77.53375,12.94352],[77.54875,12.94264]]},"properties":{"klass":"minor"}},{"type":"Feature","geometry":{"type":"LineString","coordinates":[[77.56359,12.9422],[77.57859,12.94222]]},"properties":{"klass":"minor"}},{"type":"Feature","geometry":{"type":"LineString","coordinates":[[77.5759,12.94274],[77.5909,12.94346]]},"properties":{"klass":"minor"}},{"type":"Feature","geometry":{"type":"LineString","coordinates":[[77.59136,12.94087],[77.60636,12.94069]]},"properties":{"klass":"minor"}},{"type":"Feature","geometry":{"type":"LineString","coordinates":[[77.60763,12.94105],[77.62263,12.94085]]},"properties":{"klass":"minor"}},{"type":"Feature","geometry":{"type":"LineString","coordinates":[[77.62117,12.94219],[77.63617,12.94208]]},"properties":{"klass":"minor"}},{"type":"Feature","geometry":{"type":"LineString","coordinates":[[77.63828,12.94136],[77.65328,12.94031]]},"properties":{"klass":"minor"}},{"type":"Feature","geometry":{"type":"LineString","coordinates":[[77.65414,12.94222],[77.66914,12.94147]]},"properties":{"klass":"minor"}},{"type":"Feature","geometry":{"type":"LineString","coordinates":[[77.68354,12.94225],[77.69854,12.94255]]},"properties":{"klass":"minor"}},{"type":"Feature","geometry":{"type":"LineString","coordinates":[[77.74422,12.94403],[77.75922,12.94337]]},"properties":{"klass":"minor"}},{"type":"Feature","geometry":{"type":"LineString","coordinates":[[77.47152,12.95094],[77.48652,12.95015]]},"properties":{"klass":"minor"}},{"type":"Feature","geometry":{"type":"LineString","coordinates":[[77.50334,12.95126],[77.51834,12.95221]]},"properties":{"klass":"minor"}},{"type":"Feature","geometry":{"type":"LineString","coordinates":[[77.51563,12.95006],[77.53063,12.95103]]},"properties":{"klass":"minor"}},{"type":"Feature","geometry":{"type":"LineString","coordinates":[[77.54662,12.95158],[77.56162,12.95225]]},"properties":{"klass":"minor"}},{"type":"Feature","geometry":{"type":"LineString","coordinates":[[77.57878,12.95068],[77.59378,12.95164]]},"properties":{"klass":"minor"}},{"type":"Feature","geometry":{"type":"LineString","coordinates":[[77.59199,12.95061],[77.60699,12.95105]]},"properties":{"klass":"minor"}},{"type":"Feature","geometry":{"type":"LineString","coordinates":[[77.60886,12.94918],[77.62386,12.94991]]},"properties":{"klass":"minor"}},{"type":"Feature","geometry":{"type":"LineString","coordinates":[[77.62265,12.9511],[77.63765,12.95072]]},"properties":{"klass":"minor"}},{"type":"Feature","geometry":{"type":"LineString","coordinates":[[77.63744,12.94932],[77.65244,12.94931]]},"properties":{"klass":"minor"}},{"type":"Feature","geometry":{"type":"LineString","coordinates":[[77.65427,12.95136],[77.66927,12.95117]]},"properties":{"klass":"minor"}},{"type":"Feature","geometry":{"type":"LineString","coordinates":[[77.69601,12.95133],[77.71101,12.95185]]},"properties":{"klass":"minor"}},{"type":"Feature","geometry":{"type":"LineString","coordinates":[[77.45808,12.95846],[77.47308,12.95879]]},"properties":{"klass":"minor"}},{"type":"Feature","geometry":{"type":"LineString","coordinates":[[77.48675,12.95923],[77.50175,12.95883]]},"properties":{"klass":"minor"}},{"type":"Feature","geometry":{"type":"LineString","coordinates":[[77.51765,12.95569],[77.53265,12.9551]]},"properties":{"klass":"minor"}},{"type":"Feature","geometry":{"type":"LineString","coordinates":[[77.54793,12.95858],[77.56293,12.95824]]},"properties":{"klass":"minor"}},{"type":"Feature","geometry":{"type":"LineString","coordinates":[[77.56087,12.95871],[77.57587,12.95794]]},"properties":{"klass":"minor"}},{"type":"Feature","geometry":{"type":"LineString","coordinates":[[77.57925,12.95812],[77.59425,12.95893]]},"properties":{"klass":"minor"}},{"type":"Feature","geometry":{"type":"LineString","coordinates":[[77.59417,12.95658],[77.60917,12.95728]]},"properties":{"klass":"minor"}},{"type":"Feature","geometry":{"type":"LineString","coordinates":[[77.6079,12.95745],[77.6229,12.95791]]},"properties":{"klass":"minor"}},{"type":"Feature","geometry":{"type":"LineString","coordinates":[[77.62362,12.95758],[77.63862,12.95861]]},"properties":{"klass":"minor"}},{"type":"Feature","geometry":{"type":"LineString","coordinates":[[77.6391,12.95683],[77.6541,12.95621]]},"properties":{"klass":"minor"}},{"type":"Feature","geometry":{"type":"LineString","coordinates":[[77.65267,12.95929],[77.66767,12.95975]]},"properties":{"klass":"minor"}},{"type":"Feature","geometry":{"type":"LineString","coordinates":[[77.66592,12.95771],[77.68092,12.95677]]},"properties":{"klass":"minor"}},{"type":"Feature","geometry":{"type":"LineString","coordinates":[[77.69843,12.95674],[77.71343,12.9578]]},"properties":{"klass":"minor"}},{"type":"Feature","geometry":{"type":"LineString","coordinates":[[77.71315,12.95607],[77.72815,12.95592]]},"properties":{"klass":"minor"}},{"type":"Feature","geometry":{"type":"LineString","coordinates":[[77.72844,12.95563],[77.74344,12.95451]]},"properties":{"klass":"minor"}},{"type":"Feature","geometry":{"type":"LineString","coordinates":[[77.51862,12.9654],[77.53362,12.96538]]},"properties":{"klass":"minor"}},{"type":"Feature","geometry":{"type":"LineString","coordinates":[[77.53116,12.966],[77.54616,12.96669]]},"properties":{"klass":"minor"}},{"type":"Feature","geometry":{"type":"LineString","coordinates":[[77.54912,12.96332],[77.56412,12.96321]]},"properties":{"klass":"minor"}},{"type":"Feature","geometry":{"type":"LineString","coordinates":[[77.56351,12.9645],[77.57851,12.96562]]},"properties":{"klass":"minor"}},{"type":"Feature","geometry":{"type":"LineString","coordinates":[[77.57673,12.96455],[77.59173,12.96538]]},"properties":{"klass":"minor"}},{"type":"Feature","geometry":{"type":"LineString","coordinates":[[77.59172,12.96537],[77.60672,12.96637]]},"properties":{"klass":"minor"}},{"type":"Feature","geometry":{"type":"LineString","coordinates":[[77.60633,12.96574],[77.62133,12.96471]]},"properties":{"klass":"minor"}},{"type":"Feature","geometry":{"type":"LineString","coordinates":[[77.62138,12.96465],[77.63638,12.96433]]},"properties":{"klass":"minor"}},{"type":"Feature","geometry":{"type":"LineString","coordinates":[[77.651,12.96678],[77.666,12.96658]]},"properties":{"klass":"minor"}},{"type":"Feature","geometry":{"type":"LineString","coordinates":[[77.68233,12.96642],[77.69733,12.96609]]},"properties":{"klass":"minor"}},{"type":"Feature","geometry":{"type":"LineString","coordinates":[[77.69749,12.9659],[77.71249,12.96636]]},"properties":{"klass":"minor"}},{"type":"Feature","geometry":{"type":"LineString","coordinates":[[77.71285,12.96664],[77.72785,12.96704]]},"properties":{"klass":"minor"}},{"type":"Feature","geometry":{"type":"LineString","coordinates":[[77.48648,12.97253],[77.50148,12.97206]]},"properties":{"klass":"minor"}},{"type":"Feature","geometry":{"type":"LineString","coordinates":[[77.54856,12.97287],[77.56356,12.97377]]},"properties":{"klass":"minor"}},{"type":"Feature","geometry":{"type":"LineString","coordinates":[[77.5642,12.97276],[77.5792,12.97321]]},"properties":{"klass":"minor"}},{"type":"Feature","geometry":{"type":"LineString","coordinates":[[77.57655,12.97092],[77.59155,12.97042]]},"properties":{"klass":"minor"}},{"type":"Feature","geometry":{"type":"LineString","coordinates":[[77.59139,12.97244],[77.60639,12.97232]]},"properties":{"klass":"minor"}},{"type":"Feature","geometry":{"type":"LineString","coordinates":[[77.60772,12.97437],[77.62272,12.97372]]},"properties":{"klass":"minor"}},{"type":"Feature","geometry":{"type":"LineString","coordinates":[[77.62339,12.97147],[77.63839,12.97046]]},"properties":{"klass":"minor"}},{"type":"Feature","geometry":{"type":"LineString","coordinates":[[77.63574,12.97197],[77.65074,12.97088]]},"properties":{"klass":"minor"}},{"type":"Feature","geometry":{"type":"LineString","coordinates":[[77.65186,12.97073],[77.66686,12.97084]]},"properties":{"klass":"minor"}},{"type":"Feature","geometry":{"type":"LineString","coordinates":[[77.66869,12.97234],[77.68369,12.97287]]},"properties":{"klass":"minor"}},{"type":"Feature","geometry":{"type":"LineString","coordinates":[[77.68072,12.97244],[77.69572,12.97233]]},"properties":{"klass":"minor"}},{"type":"Feature","geometry":{"type":"LineString","coordinates":[[77.69903,12.97437],[77.71403,12.97457]]},"properties":{"klass":"minor"}},{"type":"Feature","geometry":{"type":"LineString","coordinates":[[77.71127,12.97282],[77.72627,12.97243]]},"properties":{"klass":"minor"}},{"type":"Feature","geometry":{"type":"LineString","coordinates":[[77.72613,12.97107],[77.74113,12.97147]]},"properties":{"klass":"minor"}},{"type":"Feature","geometry":{"type":"LineString","coordinates":[[77.75796,12.97329],[77.77296,12.97233]]},"properties":{"klass":"minor"}},{"type":"Feature","geometry":{"type":"LineString","coordinates":[[77.48788,12.97835],[77.50288,12.97851]]},"properties":{"klass":"minor"}},{"type":"Feature","geometry":{"type":"LineString","coordinates":[[77.50378,12.98181],[77.51878,12.98148]]},"properties":{"klass":"minor"}},{"type":"Feature","geometry":{"type":"LineString","coordinates":[[77.54925,12.98132],[77.56425,12.98094]]},"properties":{"klass":"minor"}},{"type":"Feature","geometry":{"type":"LineString","coordinates":[[77.56104,12.98143],[77.57604,12.9815]]},"properties":{"klass":"minor"}},{"type":"Feature","geometry":{"type":"LineString","coordinates":[[77.57614,12.98071],[77.59114,12.98011]]},"properties":{"klass":"minor"}},{"type":"Feature","geometry":{"type":"LineString","coordinates":[[77.59319,12.97939],[77.60819,12.97884]]},"properties":{"klass":"minor"}},{"type":"Feature","geometry":{"type":"LineString","coordinates":[[77.60918,12.97843],[77.62418,12.97774]]},"properties":{"klass":"minor"}},{"type":"Feature","geometry":{"type":"LineString","coordinates":[[77.62274,12.98134],[77.63774,12.98168]]},"properties":{"klass":"minor"}},{"type":"Feature","geometry":{"type":"LineString","coordinates":[[77.65154,12.98176],[77.66654,12.98186]]},"properties":{"klass":"minor"}},{"type":"Feature","geometry":{"type":"LineString","coordinates":[[77.66568,12.98033],[77.68068,12.97938]]},"properties":{"klass":"minor"}},{"type":"Feature","geometry":{"type":"LineString","coordinates":[[77.68186,12.97892],[77.69686,12.97813]]},"properties":{"klass":"minor"}},{"type":"Feature","geometry":{"type":"LineString","coordinates":[[77.69934,12.98139],[77.71434,12.98054]]},"properties":{"klass":"minor"}},{"type":"Feature","geometry":{"type":"LineString","coordinates":[[77.72795,12.98185],[77.74295,12.98187]]},"properties":{"klass":"minor"}},{"type":"Feature","geometry":{"type":"LineString","coordinates":[[77.74387,12.98097],[77.75887,12.98182]]},"properties":{"klass":"minor"}},{"type":"Feature","geometry":{"type":"LineString","coordinates":[[77.473,12.98877],[77.488,12.98922]]},"properties":{"klass":"minor"}},{"type":"Feature","geometry":{"type":"LineString","coordinates":[[77.5322,12.98801],[77.5472,12.98768]]},"properties":{"klass":"minor"}},{"type":"Feature","geometry":{"type":"LineString","coordinates":[[77.54696,12.98785],[77.56196,12.98721]]},"properties":{"klass":"minor"}},{"type":"Feature","geometry":{"type":"LineString","coordinates":[[77.57771,12.986],[77.59271,12.98668]]},"properties":{"klass":"minor"}},{"type":"Feature","geometry":{"type":"LineString","coordinates":[[77.59382,12.98802],[77.60882,12.98906]]},"properties":{"klass":"minor"}},{"type":"Feature","geometry":{"type":"LineString","coordinates":[[77.60775,12.98704],[77.62275,12.98624]]},"properties":{"klass":"minor"}},{"type":"Feature","geometry":{"type":"LineString","coordinates":[[77.62181,12.9875],[77.63681,12.98788]]},"properties":{"klass":"minor"}},{"type":"Feature","geometry":{"type":"LineString","coordinates":[[77.63876,12.98757],[77.65376,12.98837]]},"properties":{"klass":"minor"}},{"type":"Feature","geometry":{"type":"LineString","coordinates":[[77.68232,12.9877],[77.69732,12.98854]]},"properties":{"klass":"minor"}},{"type":"Feature","geometry":{"type":"LineString","coordinates":[[77.6973,12.9862],[77.7123,12.98563]]},"properties":{"klass":"minor"}},{"type":"Feature","geometry":{"type":"LineString","coordinates":[[77.74232,12.98915],[77.75732,12.98938]]},"properties":{"klass":"minor"}},{"type":"Feature","geometry":{"type":"LineString","coordinates":[[77.47352,12.995],[77.48852,12.9946]]},"properties":{"klass":"minor"}},{"type":"Feature","geometry":{"type":"LineString","coordinates":[[77.48859,12.99523],[77.50359,12.99614]]},"properties":{"klass":"minor"}},{"type":"Feature","geometry":{"type":"LineString","coordinates":[[77.51698,12.99624],[77.53198,12.996]]},"properties":{"klass":"minor"}},{"type":"Feature","geometry":{"type":"LineString","coordinates":[[77.5343,12.99338],[77.5493,12.99339]]},"properties":{"klass":"minor"}},{"type":"Feature","geometry":{"type":"LineString","coordinates":[[77.5614,12.99553],[77.5764,12.99478]]},"properties":{"klass":"minor"}},{"type":"Feature","geometry":{"type":"LineString","coordinates":[[77.59291,12.99568],[77.60791,12.99631]]},"properties":{"klass":"minor"}},{"type":"Feature","geometry":{"type":"LineString","coordinates":[[77.60689,12.99584],[77.62189,12.99603]]},"properties":{"klass":"minor"}},{"type":"Feature","geometry":{"type":"LineString","coordinates":[[77.63615,12.99442],[77.65115,12.99415]]},"properties":{"klass":"minor"}},{"type":"Feature","geometry":{"type":"LineString","coordinates":[[77.65078,12.99374],[77.66578,12.99468]]},"properties":{"klass":"minor"}},{"type":"Feature","geometry":{"type":"LineString","coordinates":[[77.68188,12.99355],[77.69688,12.99294]]},"properties":{"klass":"minor"}},{"type":"Feature","geometry":{"type":"LineString","coordinates":[[77.71111,12.99523],[77.72611,12.99547]]},"properties":{"klass":"minor"}},{"type":"Feature","geometry":{"type":"LineString","coordinates":[[77.7288,12.99434],[77.7438,12.99525]]},"properties":{"klass":"minor"}},{"type":"Feature","geometry":{"type":"LineString","coordinates":[[77.74292,12.99609],[77.75792,12.99599]]},"properties":{"klass":"minor"}},{"type":"Feature","geometry":{"type":"LineString","coordinates":[[77.51632,13.00425],[77.53132,13.00338]]},"properties":{"klass":"minor"}},{"type":"Feature","geometry":{"type":"LineString","coordinates":[[77.53072,13.00325],[77.54572,13.00398]]},"properties":{"klass":"minor"}},{"type":"Feature","geometry":{"type":"LineString","coordinates":[[77.54722,13.00339],[77.56222,13.00412]]},"properties":{"klass":"minor"}},{"type":"Feature","geometry":{"type":"LineString","coordinates":[[77.56145,13.00184],[77.57645,13.0014]]},"properties":{"klass":"minor"}},{"type":"Feature","geometry":{"type":"LineString","coordinates":[[77.57672,13.00083],[77.59172,13.00191]]},"properties":{"klass":"minor"}},{"type":"Feature","geometry":{"type":"LineString","coordinates":[[77.59353,13.0008],[77.60853,13.00168]]},"properties":{"klass":"minor"}},{"type":"Feature","geometry":{"type":"LineString","coordinates":[[77.60931,13.00418],[77.62431,13.00433]]},"properties":{"klass":"minor"}},{"type":"Feature","geometry":{"type":"LineString","coordinates":[[77.62187,13.00349],[77.63687,13.00312]]},"properties":{"klass":"minor"}},{"type":"Feature","geometry":{"type":"LineString","coordinates":[[77.63798,13.00202],[77.65298,13.00102]]},"properties":{"klass":"minor"}},{"type":"Feature","geometry":{"type":"LineString","coordinates":[[77.65423,13.00102],[77.66923,13.00032]]},"properties":{"klass":"minor"}},{"type":"Feature","geometry":{"type":"LineString","coordinates":[[77.66671,13.00342],[77.68171,13.00316]]},"properties":{"klass":"minor"}},{"type":"Feature","geometry":{"type":"LineString","coordinates":[[77.68435,13.00131],[77.69935,13.00112]]},"properties":{"klass":"minor"}},{"type":"Feature","geometry":{"type":"LineString","coordinates":[[77.71292,13.00418],[77.72792,13.00491]]},"properties":{"klass":"minor"}},{"type":"Feature","geometry":{"type":"LineString","coordinates":[[77.72849,13.00332],[77.74349,13.00313]]},"properties":{"klass":"minor"}},{"type":"Feature","geometry":{"type":"LineString","coordinates":[[77.74292,13.00242],[77.75792,13.00287]]},"properties":{"klass":"minor"}},{"type":"Feature","geometry":{"type":"LineString","coordinates":[[77.50093,13.00868],[77.51593,13.00834]]},"properties":{"klass":"minor"}},{"type":"Feature","geometry":{"type":"LineString","coordinates":[[77.53097,13.00839],[77.54597,13.00747]]},"properties":{"klass":"minor"}},{"type":"Feature","geometry":{"type":"LineString","coordinates":[[77.57775,13.01104],[77.59275,13.01208]]},"properties":{"klass":"minor"}},{"type":"Feature","geometry":{"type":"LineString","coordinates":[[77.60841,13.01048],[77.62341,13.01123]]},"properties":{"klass":"minor"}},{"type":"Feature","geometry":{"type":"LineString","coordinates":[[77.62115,13.01136],[77.63615,13.0118]]},"properties":{"klass":"minor"}},{"type":"Feature","geometry":{"type":"LineString","coordinates":[[77.63858,13.0088],[77.65358,13.00929]]},"properties":{"klass":"minor"}},{"type":"Feature","geometry":{"type":"LineString","coordinates":[[77.66889,13.01053],[77.68389,13.01128]]},"properties":{"klass":"minor"}},{"type":"Feature","geometry":{"type":"LineString","coordinates":[[77.71207,13.01096],[77.72707,13.01091]]},"properties":{"klass":"minor"}},{"type":"Feature","geometry":{"type":"LineString","coordinates":[[77.7272,13.01043],[77.7422,13.00998]]},"properties":{"klass":"minor"}},{"type":"Feature","geometry":{"type":"LineString","coordinates":[[77.74192,13.00874],[77.75692,13.00958]]},"properties":{"klass":"minor"}},{"type":"Feature","geometry":{"type":"LineString","coordinates":[[77.77269,13.01077],[77.78769,13.01022]]},"properties":{"klass":"minor"}},{"type":"Feature","geometry":{"type":"LineString","coordinates":[[77.5176,13.01919],[77.5326,13.02017]]},"properties":{"klass":"minor"}},{"type":"Feature","geometry":{"type":"LineString","coordinates":[[77.54829,13.01829],[77.56329,13.01724]]},"properties":{"klass":"minor"}},{"type":"Feature","geometry":{"type":"LineString","coordinates":[[77.56111,13.01837],[77.57611,13.01727]]},"properties":{"klass":"minor"}},{"type":"Feature","geometry":{"type":"LineString","coordinates":[[77.59185,13.0182],[77.60685,13.01916]]},"properties":{"klass":"minor"}},{"type":"Feature","geometry":{"type":"LineString","coordinates":[[77.6057,13.01742],[77.6207,13.01806]]},"properties":{"klass":"minor"}},{"type":"Feature","geometry":{"type":"LineString","coordinates":[[77.62186,13.01935],[77.63686,13.0183]]},"properties":{"klass":"minor"}},{"type":"Feature","geometry":{"type":"LineString","coordinates":[[77.63693,13.01801],[77.65193,13.01859]]},"properties":{"klass":"minor"}},{"type":"Feature","geometry":{"type":"LineString","coordinates":[[77.65247,13.01667],[77.66747,13.01566]]},"properties":{"klass":"minor"}},{"type":"Feature","geometry":{"type":"LineString","coordinates":[[77.69884,13.01737],[77.71384,13.01822]]},"properties":{"klass":"minor"}},{"type":"Feature","geometry":{"type":"LineString","coordinates":[[77.71417,13.01823],[77.72917,13.01929]]},"properties":{"klass":"minor"}},{"type":"Feature","geometry":{"type":"LineString","coordinates":[[77.51623,13.02664],[77.53123,13.02727]]},"properties":{"klass":"minor"}},{"type":"Feature","geometry":{"type":"LineString","coordinates":[[77.53308,13.02555],[77.54808,13.02594]]},"properties":{"klass":"minor"}},{"type":"Feature","geometry":{"type":"LineString","coordinates":[[77.54592,13.02593],[77.56092,13.02654]]},"properties":{"klass":"minor"}},{"type":"Feature","geometry":{"type":"LineString","coordinates":[[77.57807,13.02601],[77.59307,13.02648]]},"properties":{"klass":"minor"}},{"type":"Feature","geometry":{"type":"LineString","coordinates":[[77.59315,13.02589],[77.60815,13.02522]]},"properties":{"klass":"minor"}},{"type":"Feature","geometry":{"type":"LineString","coordinates":[[77.60737,13.02324],[77.62237,13.02313]]},"properties":{"klass":"minor"}},{"type":"Feature","geometry":{"type":"LineString","coordinates":[[77.68298,13.02668],[77.69798,13.02677]]},"properties":{"klass":"minor"}},{"type":"Feature","geometry":{"type":"LineString","coordinates":[[77.71404,13.02576],[77.72904,13.02551]]},"properties":{"klass":"minor"}},{"type":"Feature","geometry":{"type":"LineString","coordinates":[[77.74394,13.02569],[77.75894,13.02662]]},"properties":{"klass":"minor"}},{"type":"Feature","geometry":{"type":"LineString","coordinates":[[77.50088,13.03345],[77.51588,13.03343]]},"properties":{"klass":"minor"}},{"type":"Feature","geometry":{"type":"LineString","coordinates":[[77.51797,13.03319],[77.53297,13.03321]]},"properties":{"klass":"minor"}},{"type":"Feature","geometry":{"type":"LineString","coordinates":[[77.54818,13.03408],[77.56318,13.03435]]},"properties":{"klass":"minor"}},{"type":"Feature","geometry":{"type":"LineString","coordinates":[[77.56247,13.03248],[77.57747,13.03281]]},"properties":{"klass":"minor"}},{"type":"Feature","geometry":{"type":"LineString","coordinates":[[77.59155,13.03072],[77.60655,13.0306]]},"properties":{"klass":"minor"}},{"type":"Feature","geometry":{"type":"LineString","coordinates":[[77.6815,13.03363],[77.6965,13.03307]]},"properties":{"klass":"minor"}},{"type":"Feature","geometry":{"type":"LineString","coordinates":[[77.69936,13.03381],[77.71436,13.03312]]},"properties":{"klass":"minor"}},{"type":"Feature","geometry":{"type":"LineString","coordinates":[[77.72846,13.03298],[77.74346,13.03395]]},"properties":{"klass":"minor"}},{"type":"Feature","geometry":{"type":"LineString","coordinates":[[77.74222,13.03427],[77.75722,13.03527]]},"properties":{"klass":"minor"}},{"type":"Feature","geometry":{"type":"LineString","coordinates":[[77.75883,13.03177],[77.77383,13.03065]]},"properties":{"klass":"minor"}},{"type":"Feature","geometry":{"type":"LineString","coordinates":[[77.50355,13.04107],[77.51855,13.04036]]},"properties":{"klass":"minor"}},{"type":"Feature","geometry":{"type":"LineString","coordinates":[[77.56187,13.03839],[77.57687,13.03873]]},"properties":{"klass":"minor"}},{"type":"Feature","geometry":{"type":"LineString","coordinates":[[77.57883,13.03924],[77.59383,13.03989]]},"properties":{"klass":"minor"}},{"type":"Feature","geometry":{"type":"LineString","coordinates":[[77.59359,13.03852],[77.60859,13.03754]]},"properties":{"klass":"minor"}},{"type":"Feature","geometry":{"type":"LineString","coordinates":[[77.60568,13.0412],[77.62068,13.0417]]},"properties":{"klass":"minor"}},{"type":"Feature","geometry":{"type":"LineString","coordinates":[[77.65367,13.04032],[77.66867,13.03927]]},"properties":{"klass":"minor"}},{"type":"Feature","geometry":{"type":"LineString","coordinates":[[77.68199,13.04126],[77.69699,13.04176]]},"properties":{"klass":"minor"}},{"type":"Feature","geometry":{"type":"LineString","coordinates":[[77.69693,13.03887],[77.71193,13.03861]]},"properties":{"klass":"minor"}},{"type":"Feature","geometry":{"type":"LineString","coordinates":[[77.72925,13.03889],[77.74425,13.03817]]},"properties":{"klass":"minor"}},{"type":"Feature","geometry":{"type":"LineString","coordinates":[[77.53141,13.0462],[77.54641,13.04517]]},"properties":{"klass":"minor"}},{"type":"Feature","geometry":{"type":"LineString","coordinates":[[77.54665,13.04756],[77.56165,13.04825]]},"properties":{"klass":"minor"}},{"type":"Feature","geometry":{"type":"LineString","coordinates":[[77.59171,13.04687],[77.60671,13.04709]]},"properties":{"klass":"minor"}},{"type":"Feature","geometry":{"type":"LineString","coordinates":[[77.62428,13.04567],[77.63928,13.04459]]},"properties":{"klass":"minor"}},{"type":"Feature","geometry":{"type":"LineString","coordinates":[[77.66887,13.04723],[77.68387,13.04631]]},"properties":{"klass":"minor"}},{"type":"Feature","geometry":{"type":"LineString","coordinates":[[77.68372,13.0481],[77.69872,13.04842]]},"properties":{"klass":"minor"}},{"type":"Feature","geometry":{"type":"LineString","coordinates":[[77.71246,13.04915],[77.72746,13.04964]]},"properties":{"klass":"minor"}},{"type":"Feature","geometry":{"type":"LineString","coordinates":[[77.48824,13.05653],[77.50324,13.05599]]},"properties":{"klass":"minor"}},{"type":"Feature","geometry":{"type":"LineString","coordinates":[[77.5178,13.05607],[77.5328,13.05664]]},"properties":{"klass":"minor"}},{"type":"Feature","geometry":{"type":"LineString","coordinates":[[77.53331,13.05635],[77.54831,13.05674]]},"properties":{"klass":"minor"}},{"type":"Feature","geometry":{"type":"LineString","coordinates":[[77.5641,13.05554],[77.5791,13.05586]]},"properties":{"klass":"minor"}},{"type":"Feature","geometry":{"type":"LineString","coordinates":[[77.60835,13.05662],[77.62335,13.05604]]},"properties":{"klass":"minor"}},{"type":"Feature","geometry":{"type":"LineString","coordinates":[[77.62305,13.05322],[77.63805,13.05365]]},"properties":{"klass":"minor"}},{"type":"Feature","geometry":{"type":"LineString","coordinates":[[77.6372,13.05464],[77.6522,13.05443]]},"properties":{"klass":"minor"}},{"type":"Feature","geometry":{"type":"LineString","coordinates":[[77.66621,13.05559],[77.68121,13.05668]]},"properties":{"klass":"minor"}},{"type":"Feature","geometry":{"type":"LineString","coordinates":[[77.68105,13.05462],[77.69605,13.05517]]},"properties":{"klass":"minor"}},{"type":"Feature","geometry":{"type":"LineString","coordinates":[[77.7124,13.05658],[77.7274,13.05575]]},"properties":{"klass":"minor"}},{"type":"Feature","geometry":{"type":"LineString","coordinates":[[77.77433,13.05642],[77.78933,13.05582]]},"properties":{"klass":"minor"}},{"type":"Feature","geometry":{"type":"LineString","coordinates":[[77.48919,13.06247],[77.50419,13.06344]]},"properties":{"klass":"minor"}},{"type":"Feature","geometry":{"type":"LineString","coordinates":[[77.57636,13.06212],[77.59136,13.06282]]},"properties":{"klass":"minor"}},{"type":"Feature","geometry":{"type":"LineString","coordinates":[[77.59139,13.06348],[77.60639,13.06331]]},"properties":{"klass":"minor"}},{"type":"Feature","geometry":{"type":"LineString","coordinates":[[77.60633,13.06109],[77.62133,13.06141]]},"properties":{"klass":"minor"}},{"type":"Feature","geometry":{"type":"LineString","coordinates":[[77.639,13.06306],[77.654,13.06335]]},"properties":{"klass":"minor"}},{"type":"Feature","geometry":{"type":"LineString","coordinates":[[77.65311,13.06168],[77.66811,13.06275]]},"properties":{"klass":"minor"}},{"type":"Feature","geometry":{"type":"LineString","coordinates":[[77.6671,13.06132],[77.6821,13.0609]]},"properties":{"klass":"minor"}},{"type":"Feature","geometry":{"type":"LineString","coordinates":[[77.69652,13.06132],[77.71152,13.06053]]},"properties":{"klass":"minor"}},{"type":"Feature","geometry":{"type":"LineString","coordinates":[[77.74132,13.06415],[77.75632,13.06338]]},"properties":{"klass":"minor"}},{"type":"Feature","geometry":{"type":"LineString","coordinates":[[77.4566,13.06964],[77.4716,13.07024]]},"properties":{"klass":"minor"}},{"type":"Feature","geometry":{"type":"LineString","coordinates":[[77.4721,13.07033],[77.4871,13.07053]]},"properties":{"klass":"minor"}},{"type":"Feature","geometry":{"type":"LineString","coordinates":[[77.48687,13.07082],[77.50187,13.07003]]},"properties":{"klass":"minor"}},{"type":"Feature","geometry":{"type":"LineString","coordinates":[[77.51661,13.07005],[77.53161,13.07042]]},"properties":{"klass":"minor"}},{"type":"Feature","geometry":{"type":"LineString","coordinates":[[77.5634,13.06989],[77.5784,13.06943]]},"properties":{"klass":"minor"}},{"type":"Feature","geometry":{"type":"LineString","coordinates":[[77.57784,13.06826],[77.59284,13.06932]]},"properties":{"klass":"minor"}},{"type":"Feature","geometry":{"type":"LineString","coordinates":[[77.59266,13.07068],[77.60766,13.06964]]},"properties":{"klass":"minor"}},{"type":"Feature","geometry":{"type":"LineString","coordinates":[[77.62391,13.0695],[77.63891,13.06892]]},"properties":{"klass":"minor"}},{"type":"Feature","geometry":{"type":"LineString","coordinates":[[77.63638,13.0705],[77.65138,13.06944]]},"properties":{"klass":"minor"}},{"type":"Feature","geometry":{"type":"LineString","coordinates":[[77.65195,13.07153],[77.66695,13.07112]]},"properties":{"klass":"minor"}},{"type":"Feature","geometry":{"type":"LineString","coordinates":[[77.502,13.07901],[77.517,13.07866]]},"properties":{"klass":"minor"}},{"type":"Feature","geometry":{"type":"LineString","coordinates":[[77.56203,13.07763],[77.57703,13.07767]]},"properties":{"klass":"minor"}},{"type":"Feature","geometry":{"type":"LineString","coordinates":[[77.60896,13.07707],[77.62396,13.07605]]},"properties":{"klass":"minor"}},{"type":"Feature","geometry":{"type":"LineString","coordinates":[[77.62288,13.07858],[77.63788,13.07795]]},"properties":{"klass":"minor"}},{"type":"Feature","geometry":{"type":"LineString","coordinates":[[77.63711,13.07876],[77.65211,13.07851]]},"properties":{"klass":"minor"}},{"type":"Feature","geometry":{"type":"LineString","coordinates":[[77.69587,13.07631],[77.71087,13.07688]]},"properties":{"klass":"minor"}},{"type":"Feature","geometry":{"type":"LineString","coordinates":[[77.47423,13.08398],[77.48923,13.08479]]},"properties":{"klass":"minor"}},{"type":"Feature","geometry":{"type":"LineString","coordinates":[[77.50227,13.08424],[77.51727,13.08473]]},"properties":{"klass":"minor"}},{"type":"Feature","geometry":{"type":"LineString","coordinates":[[77.51735,13.0846],[77.53235,13.08487]]},"properties":{"klass":"minor"}},{"type":"Feature","geometry":{"type":"LineString","coordinates":[[77.62266,13.08465],[77.63766,13.08354]]},"properties":{"klass":"minor"}},{"type":"Feature","geometry":{"type":"LineString","coordinates":[[77.65169,13.08571],[77.66669,13.08607]]},"properties":{"klass":"minor"}},{"type":"Feature","geometry":{"type":"LineString","coordinates":[[77.71216,13.08324],[77.72716,13.08335]]},"properties":{"klass":"minor"}},{"type":"Feature","geometry":{"type":"LineString","coordinates":[[77.47069,13.09095],[77.48569,13.0915]]},"properties":{"klass":"minor"}},{"type":"Feature","geometry":{"type":"LineString","coordinates":[[77.54648,13.09422],[77.56148,13.09372]]},"properties":{"klass":"minor"}},{"type":"Feature","geometry":{"type":"LineString","coordinates":[[77.57713,13.09361],[77.59213,13.09267]]},"properties":{"klass":"minor"}},{"type":"Feature","geometry":{"type":"LineString","coordinates":[[77.59082,13.09358],[77.60582,13.09259]]},"properties":{"klass":"minor"}},{"type":"Feature","geometry":{"type":"LineString","coordinates":[[77.65136,13.09082],[77.66636,13.08987]]},"properties":{"klass":"minor"}},{"type":"Feature","geometry":{"type":"LineString","coordinates":[[77.69607,13.09135],[77.71107,13.09186]]},"properties":{"klass":"minor"}},{"type":"Feature","geometry":{"type":"LineString","coordinates":[[77.53379,13.09994],[77.54879,13.09934]]},"properties":{"klass":"minor"}},{"type":"Feature","geometry":{"type":"LineString","coordinates":[[77.56188,13.10106],[77.57688,13.10063]]},"properties":{"klass":"minor"}},{"type":"Feature","geometry":{"type":"LineString","coordinates":[[77.65419,13.09826],[77.66919,13.09917]]},"properties":{"klass":"minor"}},{"type":"Feature","geometry":{"type":"LineString","coordinates":[[77.45633,12.95598],[77.45744,12.97098]]},"properties":{"klass":"minor"}},{"type":"Feature","geometry":{"type":"LineString","coordinates":[[77.4567,12.98694],[77.45733,13.00194]]},"properties":{"klass":"minor"}},{"type":"Feature","geometry":{"type":"LineString","coordinates":[[77.45748,13.01751],[77.45784,13.03251]]},"properties":{"klass":"minor"}},{"type":"Feature","geometry":{"type":"LineString","coordinates":[[77.46628,12.91106],[77.46647,12.92606]]},"properties":{"klass":"minor"}},{"type":"Feature","geometry":{"type":"LineString","coordinates":[[77.46641,12.9273],[77.46588,12.9423]]},"properties":{"klass":"minor"}},{"type":"Feature","geometry":{"type":"LineString","coordinates":[[77.46385,12.94155],[77.46471,12.95655]]},"properties":{"klass":"minor"}},{"type":"Feature","geometry":{"type":"LineString","coordinates":[[77.4658,13.01883],[77.4665,13.03383]]},"properties":{"klass":"minor"}},{"type":"Feature","geometry":{"type":"LineString","coordinates":[[77.47072,12.95719],[77.47118,12.97219]]},"properties":{"klass":"minor"}},{"type":"Feature","geometry":{"type":"LineString","coordinates":[[77.47147,12.97313],[77.47042,12.98813]]},"properties":{"klass":"minor"}},{"type":"Feature","geometry":{"type":"LineString","coordinates":[[77.47154,12.98617],[77.47113,13.00117]]},"properties":{"klass":"minor"}},{"type":"Feature","geometry":{"type":"LineString","coordinates":[[77.47871,12.89724],[77.47852,12.91224]]},"properties":{"klass":"minor"}},{"type":"Feature","geometry":{"type":"LineString","coordinates":[[77.47944,12.91139],[77.47993,12.92639]]},"properties":{"klass":"minor"}},{"type":"Feature","geometry":{"type":"LineString","coordinates":[[77.48164,12.92662],[77.48051,12.94162]]},"properties":{"klass":"minor"}},{"type":"Feature","geometry":{"type":"LineString","coordinates":[[77.47956,12.9422],[77.48023,12.9572]]},"properties":{"klass":"minor"}},{"type":"Feature","geometry":{"type":"LineString","coordinates":[[77.48143,12.95866],[77.48034,12.97366]]},"properties":{"klass":"minor"}},{"type":"Feature","geometry":{"type":"LineString","coordinates":[[77.48153,13.01789],[77.48231,13.03289]]},"properties":{"klass":"minor"}},{"type":"Feature","geometry":{"type":"LineString","coordinates":[[77.47956,13.07612],[77.48059,13.09112]]},"properties":{"klass":"minor"}},{"type":"Feature","geometry":{"type":"LineString","coordinates":[[77.48606,12.89897],[77.48688,12.91397]]},"properties":{"klass":"minor"}},{"type":"Feature","geometry":{"type":"LineString","coordinates":[[77.48565,12.92646],[77.48581,12.94146]]},"properties":{"klass":"minor"}},{"type":"Feature","geometry":{"type":"LineString","coordinates":[[77.48788,12.98893],[77.48755,13.00393]]},"properties":{"klass":"minor"}},{"type":"Feature","geometry":{"type":"LineString","coordinates":[[77.48719,13.04579],[77.48813,13.06079]]},"properties":{"klass":"minor"}},{"type":"Feature","geometry":{"type":"LineString","coordinates":[[77.49473,12.86781],[77.49487,12.88281]]},"properties":{"klass":"minor"}},{"type":"Feature","geometry":{"type":"LineString","coordinates":[[77.49512,12.94179],[77.49487,12.95679]]},"properties":{"klass":"minor"}},{"type":"Feature","geometry":{"type":"LineString","coordinates":[[77.49531,12.95908],[77.49604,12.97408]]},"properties":{"klass":"minor"}},{"type":"Feature","geometry":{"type":"LineString","coordinates":[[77.49511,13.00412],[77.49492,13.01912]]},"properties":{"klass":"minor"}},{"type":"Feature","geometry":{"type":"LineString","coordinates":[[77.49321,13.04634],[77.494,13.06134]]},"properties":{"klass":"minor"}},{"type":"Feature","geometry":{"type":"LineString","coordinates":[[77.49326,13.06329],[77.49332,13.07829]]},"properties":{"klass":"minor"}},{"type":"Feature","geometry":{"type":"LineString","coordinates":[[77.49502,13.0793],[77.49451,13.0943]]},"properties":{"klass":"minor"}},{"type":"Feature","geometry":{"type":"LineString","coordinates":[[77.49375,13.10917],[77.49382,13.12417]]},"properties":{"klass":"minor"}},{"type":"Feature","geometry":{"type":"LineString","coordinates":[[77.50208,12.83933],[77.50162,12.85433]]},"properties":{"klass":"minor"}},{"type":"Feature","geometry":{"type":"LineString","coordinates":[[77.50345,12.85245],[77.50273,12.86745]]},"properties":{"klass":"minor"}},{"type":"Feature","geometry":{"type":"LineString","coordinates":[[77.50136,12.92851],[77.50175,12.94351]]},"properties":{"klass":"minor"}},{"type":"Feature","geometry":{"type":"LineString","coordinates":[[77.50303,12.97205],[77.50386,12.98705]]},"properties":{"klass":"minor"}},{"type":"Feature","geometry":{"type":"LineString","coordinates":[[77.50836,12.89652],[77.50748,12.91152]]},"properties":{"klass":"minor"}},{"type":"Feature","geometry":{"type":"LineString","coordinates":[[77.50859,12.91328],[77.50889,12.92828]]},"properties":{"klass":"minor"}},{"type":"Feature","geometry":{"type":"LineString","coordinates":[[77.5091,12.92583],[77.50979,12.94083]]},"properties":{"klass":"minor"}},{"type":"Feature","geometry":{"type":"LineString","coordinates":[[77.50836,12.94346],[77.50947,12.95846]]},"properties":{"klass":"minor"}},{"type":"Feature","geometry":{"type":"LineString","coordinates":[[77.50907,12.97322],[77.508,12.98822]]},"properties":{"klass":"minor"}},{"type":"Feature","geometry":{"type":"LineString","coordinates":[[77.51022,13.0191],[77.51104,13.0341]]},"properties":{"klass":"minor"}},{"type":"Feature","geometry":{"type":"LineString","coordinates":[[77.50877,13.04613],[77.50962,13.06113]]},"properties":{"klass":"minor"}},{"type":"Feature","geometry":{"type":"LineString","coordinates":[[77.51128,13.09352],[77.51072,13.10852]]},"properties":{"klass":"minor"}},{"type":"Feature","geometry":{"type":"LineString","coordinates":[[77.5192,12.86936],[77.51909,12.88436]]},"properties":{"klass":"minor"}},{"type":"Feature","geometry":{"type":"LineString","coordinates":[[77.51929,12.88175],[77.51907,12.89675]]},"properties":{"klass":"minor"}},{"type":"Feature","geometry":{"type":"LineString","coordinates":[[77.51765,12.91252],[77.51674,12.92752]]},"properties":{"klass":"minor"}},{"type":"Feature","geometry":{"type":"LineString","coordinates":[[77.51824,12.92588],[77.51769,12.94088]]},"properties":{"klass":"minor"}},{"type":"Feature","geometry":{"type":"LineString","coordinates":[[77.51877,12.9408],[77.51854,12.9558]]},"properties":{"klass":"minor"}},{"type":"Feature","geometry":{"type":"LineString","coordinates":[[77.51862,12.95883],[77.51841,12.97383]]},"properties":{"klass":"minor"}},{"type":"Feature","geometry":{"type":"LineString","coordinates":[[77.51677,13.10773],[77.51683,13.12273]]},"properties":{"klass":"minor"}},{"type":"Feature","geometry":{"type":"LineString","coordinates":[[77.52505,12.86709],[77.52395,12.88209]]},"properties":{"klass":"minor"}},{"type":"Feature","geometry":{"type":"LineString","coordinates":[[77.52631,12.94258],[77.52545,12.95758]]},"properties":{"klass":"minor"}},{"type":"Feature","geometry":{"type":"LineString","coordinates":[[77.52656,12.95848],[77.52626,12.97348]]},"properties":{"klass":"minor"}},{"type":"Feature","geometry":{"type":"LineString","coordinates":[[77.52477,12.98799],[77.5254,13.00299]]},"properties":{"klass":"minor"}},{"type":"Feature","geometry":{"type":"LineString","coordinates":[[77.52606,13.00218],[77.52601,13.01718]]},"properties":{"klass":"minor"}},{"type":"Feature","geometry":{"type":"LineString","coordinates":[[77.52633,13.01687],[77.52671,13.03187]]},"properties":{"klass":"minor"}},{"type":"Feature","geometry":{"type":"LineString","coordinates":[[77.5253,13.03065],[77.52616,13.04565]]},"properties":{"klass":"minor"}},{"type":"Feature","geometry":{"type":"LineString","coordinates":[[77.52581,13.04673],[77.52574,13.06173]]},"properties":{"klass":"minor"}},{"type":"Feature","geometry":{"type":"LineString","coordinates":[[77.52434,13.10697],[77.52375,13.12197]]},"properties":{"klass":"minor"}},{"type":"Feature","geometry":{"type":"LineString","coordinates":[[77.53169,12.83784],[77.5326,12.85284]]},"properties":{"klass":"minor"}},{"type":"Feature","geometry":{"type":"LineString","coordinates":[[77.53212,12.92789],[77.53213,12.94289]]},"properties":{"klass":"minor"}},{"type":"Feature","geometry":{"type":"LineString","coordinates":[[77.53204,12.94417],[77.53278,12.95917]]},"properties":{"klass":"minor"}},{"type":"Feature","geometry":{"type":"LineString","coordinates":[[77.53389,12.98784],[77.53339,13.00284]]},"properties":{"klass":"minor"}},{"type":"Feature","geometry":{"type":"LineString","coordinates":[[77.53235,13.00204],[77.53281,13.01704]]},"properties":{"klass":"minor"}},{"type":"Feature","geometry":{"type":"LineString","coordinates":[[77.5317,13.0173],[77.53204,13.0323]]},"properties":{"klass":"minor"}},{"type":"Feature","geometry":{"type":"LineString","coordinates":[[77.53198,13.03151],[77.53302,13.04651]]},"properties":{"klass":"minor"}},{"type":"Feature","geometry":{"type":"LineString","coordinates":[[77.5318,13.06159],[77.53073,13.07659]]},"properties":{"klass":"minor"}},{"type":"Feature","geometry":{"type":"LineString","coordinates":[[77.53418,13.09239],[77.53449,13.10739]]},"properties":{"klass":"minor"}},{"type":"Feature","geometry":{"type":"LineString","coordinates":[[77.54167,12.88203],[77.54142,12.89703]]},"properties":{"klass":"minor"}},{"type":"Feature","geometry":{"type":"LineString","coordinates":[[77.54001,12.89631],[77.54064,12.91131]]},"properties":{"klass":"minor"}},{"type":"Feature","geometry":{"type":"LineString","coordinates":[[77.53834,12.91366],[77.53893,12.92866]]},"properties":{"klass":"minor"}},{"type":"Feature","geometry":{"type":"LineString","coordinates":[[77.54134,12.95578],[77.54214,12.97078]]},"properties":{"klass":"minor"}},{"type":"Feature","geometry":{"type":"LineString","coordinates":[[77.53922,12.98717],[77.53831,13.00217]]},"properties":{"klass":"minor"}},{"type":"Feature","geometry":{"type":"LineString","coordinates":[[77.53989,13.01866],[77.54037,13.03366]]},"properties":{"klass":"minor"}},{"type":"Feature","geometry":{"type":"LineString","coordinates":[[77.54827,12.83694],[77.54866,12.85194]]},"properties":{"klass":"minor"}},{"type":"Feature","geometry":{"type":"LineString","coordinates":[[77.54861,12.8527],[77.54942,12.8677]]},"properties":{"klass":"minor"}},{"type":"Feature","geometry":{"type":"LineString","coordinates":[[77.54879,12.88383],[77.54854,12.89883]]},"properties":{"klass":"minor"}},{"type":"Feature","geometry":{"type":"LineString","coordinates":[[77.54811,12.89854],[77.54909,12.91354]]},"properties":{"klass":"minor"}},{"type":"Feature","geometry":{"type":"LineString","coordinates":[[77.54803,12.91144],[77.54818,12.92644]]},"properties":{"klass":"minor"}},{"type":"Feature","geometry":{"type":"LineString","coordinates":[[77.5467,12.92698],[77.54659,12.94198]]},"properties":{"klass":"minor"}},{"type":"Feature","geometry":{"type":"LineString","coordinates":[[77.54891,12.94418],[77.54862,12.95918]]},"properties":{"klass":"minor"}},{"type":"Feature","geometry":{"type":"LineString","coordinates":[[77.54865,12.97411],[77.54894,12.98911]]},"properties":{"klass":"minor"}},{"type":"Feature","geometry":{"type":"LineString","coordinates":[[77.54677,12.98746],[77.54622,13.00246]]},"properties":{"klass":"minor"}},{"type":"Feature","geometry":{"type":"LineString","coordinates":[[77.54619,13.06103],[77.54569,13.07603]]},"properties":{"klass":"minor"}},{"type":"Feature","geometry":{"type":"LineString","coordinates":[[77.54684,13.07861],[77.54632,13.09361]]},"properties":{"klass":"minor"}},{"type":"Feature","geometry":{"type":"LineString","coordinates":[[77.54568,13.09414],[77.54571,13.10914]]},"properties":{"klass":"minor"}},{"type":"Feature","geometry":{"type":"LineString","coordinates":[[77.54764,13.1069],[77.54761,13.1219]]},"properties":{"klass":"minor"}},{"type":"Feature","geometry":{"type":"LineString","coordinates":[[77.5547,12.89675],[77.55549,12.91175]]},"properties":{"klass":"minor"}},{"type":"Feature","geometry":{"type":"LineString","coordinates":[[77.55384,12.94294],[77.55312,12.95794]]},"properties":{"klass":"minor"}},{"type":"Feature","geometry":{"type":"LineString","coordinates":[[77.55682,12.98751],[77.55642,13.00251]]},"properties":{"klass":"minor"}},{"type":"Feature","geometry":{"type":"LineString","coordinates":[[77.5542,13.06201],[77.55393,13.07701]]},"properties":{"klass":"minor"}},{"type":"Feature","geometry":{"type":"LineString","coordinates":[[77.5636,12.88238],[77.5629,12.89738]]},"properties":{"klass":"minor"}},{"type":"Feature","geometry":{"type":"LineString","coordinates":[[77.56249,12.89653],[77.56316,12.91153]]},"properties":{"klass":"minor"}},{"type":"Feature","geometry":{"type":"LineString","coordinates":[[77.5623,12.91288],[77.56213,12.92788]]},"properties":{"klass":"minor"}},{"type":"Feature","geometry":{"type":"LineString","coordinates":[[77.56147,12.92702],[77.56128,12.94202]]},"properties":{"klass":"minor"}},{"type":"Feature","geometry":{"type":"LineString","coordinates":[[77.56172,12.94309],[77.56157,12.95809]]},"properties":{"klass":"minor"}},{"type":"Feature","geometry":{"type":"LineString","coordinates":[[77.56181,12.95708],[77.56123,12.97208]]},"properties":{"klass":"minor"}},{"type":"Feature","geometry":{"type":"LineString","coordinates":[[77.56179,12.98745],[77.56213,13.00245]]},"properties":{"klass":"minor"}},{"type":"Feature","geometry":{"type":"LineString","coordinates":[[77.5608,13.00135],[77.55984,13.01635]]},"properties":{"klass":"minor"}},{"type":"Feature","geometry":{"type":"LineString","coordinates":[[77.56118,13.03337],[77.56101,13.04837]]},"properties":{"klass":"minor"}},{"type":"Feature","geometry":{"type":"LineString","coordinates":[[77.56433,13.06071],[77.5648,13.07571]]},"properties":{"klass":"minor"}},{"type":"Feature","geometry":{"type":"LineString","coordinates":[[77.56902,12.85264],[77.56845,12.86764]]},"properties":{"klass":"minor"}},{"type":"Feature","geometry":{"type":"LineString","coordinates":[[77.57137,12.89735],[77.572,12.91235]]},"properties":{"klass":"minor"}},{"type":"Feature","geometry":{"type":"LineString","coordinates":[[77.56958,12.91253],[77.5698,12.92753]]},"properties":{"klass":"minor"}},{"type":"Feature","geometry":{"type":"LineString","coordinates":[[77.57029,12.92742],[77.56921,12.94242]]},"properties":{"klass":"minor"}},{"type":"Feature","geometry":{"type":"LineString","coordinates":[[77.56955,12.94297],[77.5686,12.95797]]},"properties":{"klass":"minor"}},{"type":"Feature","geometry":{"type":"LineString","coordinates":[[77.56944,12.95881],[77.56862,12.97381]]},"properties":{"klass":"minor"}},{"type":"Feature","geometry":{"type":"LineString","coordinates":[[77.5682,12.97298],[77.56831,12.98798]]},"properties":{"klass":"minor"}},{"type":"Feature","geometry":{"type":"LineString","coordinates":[[77.56907,12.98761],[77.56953,13.00261]]},"properties":{"klass":"minor"}},{"type":"Feature","geometry":{"type":"LineString","coordinates":[[77.57041,13.0327],[77.5697,13.0477]]},"properties":{"klass":"minor"}},{"type":"Feature","geometry":{"type":"LineString","coordinates":[[77.57085,13.06333],[77.57098,13.07833]]},"properties":{"klass":"minor"}},{"type":"Feature","geometry":{"type":"LineString","coordinates":[[77.56849,13.07571],[77.56952,13.09071]]},"properties":{"klass":"minor"}},{"type":"Feature","geometry":{"type":"LineString","coordinates":[[77.57914,12.83602],[77.57943,12.85102]]},"properties":{"klass":"minor"}},{"type":"Feature","geometry":{"type":"LineString","coordinates":[[77.57819,12.88297],[77.57751,12.89797]]},"properties":{"klass":"minor"}},{"type":"Feature","geometry":{"type":"LineString","coordinates":[[77.57818,12.89631],[77.57715,12.91131]]},"properties":{"klass":"minor"}},{"type":"Feature","geometry":{"type":"LineString","coordinates":[[77.57576,12.91182],[77.57502,12.92682]]},"properties":{"klass":"minor"}},{"type":"Feature","geometry":{"type":"LineString","coordinates":[[77.57812,12.9261],[77.57822,12.9411]]},"properties":{"klass":"minor"}},{"type":"Feature","geometry":{"type":"LineString","coordinates":[[77.57836,12.97134],[77.57792,12.98634]]},"properties":{"klass":"minor"}},{"type":"Feature","geometry":{"type":"LineString","coordinates":[[77.57564,12.98846],[77.57574,13.00346]]},"properties":{"klass":"minor"}},{"type":"Feature","geometry":{"type":"LineString","coordinates":[[77.57703,13.00389],[77.57754,13.01889]]},"properties":{"klass":"minor"}},{"type":"Feature","geometry":{"type":"LineString","coordinates":[[77.57734,13.04714],[77.57682,13.06214]]},"properties":{"klass":"minor"}},{"type":"Feature","geometry":{"type":"LineString","coordinates":[[77.57634,13.09311],[77.57524,13.10811]]},"properties":{"klass":"minor"}},{"type":"Feature","geometry":{"type":"LineString","coordinates":[[77.58438,12.89934],[77.58401,12.91434]]},"properties":{"klass":"minor"}},{"type":"Feature","geometry":{"type":"LineString","coordinates":[[77.5859,12.92616],[77.58499,12.94116]]},"properties":{"klass":"minor"}},{"type":"Feature","geometry":{"type":"LineString","coordinates":[[77.58345,12.94164],[77.58438,12.95664]]},"properties":{"klass":"minor"}},{"type":"Feature","geometry":{"type":"LineString","coordinates":[[77.58403,12.95803],[77.58384,12.97303]]},"properties":{"klass":"minor"}},{"type":"Feature","geometry":{"type":"LineString","coordinates":[[77.58616,12.97276],[77.58696,12.98776]]},"properties":{"klass":"minor"}},{"type":"Feature","geometry":{"type":"LineString","coordinates":[[77.58609,12.98735],[77.58704,13.00235]]},"properties":{"klass":"minor"}},{"type":"Feature","geometry":{"type":"LineString","coordinates":[[77.58538,13.00104],[77.58644,13.01604]]},"properties":{"klass":"minor"}},{"type":"Feature","geometry":{"type":"LineString","coordinates":[[77.58512,13.01675],[77.58569,13.03175]]},"properties":{"klass":"minor"}},{"type":"Feature","geometry":{"type":"LineString","coordinates":[[77.58629,13.0489],[77.58565,13.0639]]},"properties":{"klass":"minor"}},{"type":"Feature","geometry":{"type":"LineString","coordinates":[[77.58575,13.06081],[77.58586,13.07581]]},"properties":{"klass":"minor"}},{"type":"Feature","geometry":{"type":"LineString","coordinates":[[77.58377,13.09308],[77.58422,13.10808]]},"properties":{"klass":"minor"}},{"type":"Feature","geometry":{"type":"LineString","coordinates":[[77.59071,12.89889],[77.5913,12.91389]]},"properties":{"klass":"minor"}},{"type":"Feature","geometry":{"type":"LineString","coordinates":[[77.59346,12.94354],[77.59404,12.95854]]},"properties":{"klass":"minor"}},{"type":"Feature","geometry":{"type":"LineString","coordinates":[[77.59337,12.95711],[77.59384,12.97211]]},"properties":{"klass":"minor"}},{"type":"Feature","geometry":{"type":"LineString","coordinates":[[77.59133,12.97227],[77.5908,12.98727]]},"properties":{"klass":"minor"}},{"type":"Feature","geometry":{"type":"LineString","coordinates":[[77.59324,12.98791],[77.5941,13.00291]]},"properties":{"klass":"minor"}},{"type":"Feature","geometry":{"type":"LineString","coordinates":[[77.59392,13.00347],[77.59473,13.01847]]},"properties":{"klass":"minor"}},{"type":"Feature","geometry":{"type":"LineString","coordinates":[[77.59319,13.01922],[77.59273,13.03422]]},"properties":{"klass":"minor"}},{"type":"Feature","geometry":{"type":"LineString","coordinates":[[77.59144,13.0317],[77.59237,13.0467]]},"properties":{"klass":"minor"}},{"type":"Feature","geometry":{"type":"LineString","coordinates":[[77.59158,13.04932],[77.59135,13.06432]]},"properties":{"klass":"minor"}},{"type":"Feature","geometry":{"type":"LineString","coordinates":[[77.59227,13.06177],[77.59248,13.07677]]},"properties":{"klass":"minor"}},{"type":"Feature","geometry":{"type":"LineString","coordinates":[[77.59413,13.07838],[77.59419,13.09338]]},"properties":{"klass":"minor"}},{"type":"Feature","geometry":{"type":"LineString","coordinates":[[77.60163,12.86783],[77.60088,12.88283]]},"properties":{"klass":"minor"}},{"type":"Feature","geometry":{"type":"LineString","coordinates":[[77.59908,12.88361],[77.59905,12.89861]]},"properties":{"klass":"minor"}},{"type":"Feature","geometry":{"type":"LineString","coordinates":[[77.59966,12.91225],[77.5987,12.92725]]},"properties":{"klass":"minor"}},{"type":"Feature","geometry":{"type":"LineString","coordinates":[[77.59936,12.92859],[77.5989,12.94359]]},"properties":{"klass":"minor"}},{"type":"Feature","geometry":{"type":"LineString","coordinates":[[77.59984,12.94281],[77.60039,12.95781]]},"properties":{"klass":"minor"}},{"type":"Feature","geometry":{"type":"LineString","coordinates":[[77.59995,12.95654],[77.60104,12.97154]]},"properties":{"klass":"minor"}},{"type":"Feature","geometry":{"type":"LineString","coordinates":[[77.60052,13.00253],[77.5998,13.01753]]},"properties":{"klass":"minor"}},{"type":"Feature","geometry":{"type":"LineString","coordinates":[[77.60041,13.01878],[77.60057,13.03378]]},"properties":{"klass":"minor"}},{"type":"Feature","geometry":{"type":"LineString","coordinates":[[77.6018,13.03237],[77.6015,13.04737]]},"properties":{"klass":"minor"}},{"type":"Feature","geometry":{"type":"LineString","coordinates":[[77.59898,13.04841],[77.59877,13.06341]]},"properties":{"klass":"minor"}},{"type":"Feature","geometry":{"type":"LineString","coordinates":[[77.59988,13.0623],[77.59974,13.0773]]},"properties":{"klass":"minor"}},{"type":"Feature","geometry":{"type":"LineString","coordinates":[[77.60131,13.09118],[77.60102,13.10618]]},"properties":{"klass":"minor"}},{"type":"Feature","geometry":{"type":"LineString","coordinates":[[77.606,12.83824],[77.60537,12.85324]]},"properties":{"klass":"minor"}},{"type":"Feature","geometry":{"type":"LineString","coordinates":[[77.60823,12.85242],[77.60796,12.86742]]},"properties":{"klass":"minor"}},{"type":"Feature","geometry":{"type":"LineString","coordinates":[[77.60898,12.8807],[77.60925,12.8957]]},"properties":{"klass":"minor"}},{"type":"Feature","geometry":{"type":"LineString","coordinates":[[77.60725,12.89785],[77.60671,12.91285]]},"properties":{"klass":"minor"}},{"type":"Feature","geometry":{"type":"LineString","coordinates":[[77.60674,12.9139],[77.60686,12.9289]]},"properties":{"klass":"minor"}},{"type":"Feature","geometry":{"type":"LineString","coordinates":[[77.60825,12.92894],[77.60915,12.94394]]},"properties":{"klass":"minor"}},{"type":"Feature","geometry":{"type":"LineString","coordinates":[[77.60705,12.94406],[77.60777,12.95906]]},"properties":{"klass":"minor"}},{"type":"Feature","geometry":{"type":"LineString","coordinates":[[77.60703,12.95616],[77.60633,12.97116]]},"properties":{"klass":"minor"}},{"type":"Feature","geometry":{"type":"LineString","coordinates":[[77.60563,12.97304],[77.6066,12.98804]]},"properties":{"klass":"minor"}},{"type":"Feature","geometry":{"type":"LineString","coordinates":[[77.60866,12.98847],[77.6077,13.00347]]},"properties":{"klass":"minor"}},{"type":"Feature","geometry":{"type":"LineString","coordinates":[[77.60852,13.00096],[77.60938,13.01596]]},"properties":{"klass":"minor"}},{"type":"Feature","geometry":{"type":"LineString","coordinates":[[77.60564,13.03281],[77.60559,13.04781]]},"properties":{"klass":"minor"}},{"type":"Feature","geometry":{"type":"LineString","coordinates":[[77.60934,13.04695],[77.6085,13.06195]]},"properties":{"klass":"minor"}},{"type":"Feature","geometry":{"type":"LineString","coordinates":[[77.60603,13.07937],[77.60579,13.09437]]},"properties":{"klass":"minor"}},{"type":"Feature","geometry":{"type":"LineString","coordinates":[[77.60824,13.09236],[77.60837,13.10736]]},"properties":{"klass":"minor"}},{"type":"Feature","geometry":{"type":"LineString","coordinates":[[77.61376,12.83915],[77.61357,12.85415]]},"properties":{"klass":"minor"}},{"type":"Feature","geometry":{"type":"LineString","coordinates":[[77.61529,12.86924],[77.61439,12.88424]]},"properties":{"klass":"minor"}},{"type":"Feature","geometry":{"type":"LineString","coordinates":[[77.61685,12.92793],[77.61756,12.94293]]},"properties":{"klass":"minor"}},{"type":"Feature","geometry":{"type":"LineString","coordinates":[[77.61468,12.94405],[77.61418,12.95905]]},"properties":{"klass":"minor"}},{"type":"Feature","geometry":{"type":"LineString","coordinates":[[77.61669,12.9589],[77.61736,12.9739]]},"properties":{"klass":"minor"}},{"type":"Feature","geometry":{"type":"LineString","coordinates":[[77.61454,12.97107],[77.61537,12.98607]]},"properties":{"klass":"minor"}},{"type":"Feature","geometry":{"type":"LineString","coordinates":[[77.61496,12.98685],[77.61384,13.00185]]},"properties":{"klass":"minor"}},{"type":"Feature","geometry":{"type":"LineString","coordinates":[[77.6142,13.00178],[77.6152,13.01678]]},"properties":{"klass":"minor"}},{"type":"Feature","geometry":{"type":"LineString","coordinates":[[77.61463,13.01933],[77.61441,13.03433]]},"properties":{"klass":"minor"}},{"type":"Feature","geometry":{"type":"LineString","coordinates":[[77.615,13.03328],[77.61474,13.04828]]},"properties":{"klass":"minor"}},{"type":"Feature","geometry":{"type":"LineString","coordinates":[[77.61627,13.04839],[77.61638,13.06339]]},"properties":{"klass":"minor"}},{"type":"Feature","geometry":{"type":"LineString","coordinates":[[77.61632,13.06371],[77.61676,13.07871]]},"properties":{"klass":"minor"}},{"type":"Feature","geometry":{"type":"LineString","coordinates":[[77.61374,13.07706],[77.61362,13.09206]]},"properties":{"klass":"minor"}},{"type":"Feature","geometry":{"type":"LineString","coordinates":[[77.62128,12.86688],[77.62147,12.88188]]},"properties":{"klass":"minor"}},{"type":"Feature","geometry":{"type":"LineString","coordinates":[[77.62398,12.8971],[77.62453,12.9121]]},"properties":{"klass":"minor"}},{"type":"Feature","geometry":{"type":"LineString","coordinates":[[77.62394,12.92764],[77.62416,12.94264]]},"properties":{"klass":"minor"}},{"type":"Feature","geometry":{"type":"LineString","coordinates":[[77.62068,12.94325],[77.62123,12.95825]]},"properties":{"klass":"minor"}},{"type":"Feature","geometry":{"type":"LineString","coordinates":[[77.62205,12.95648],[77.62148,12.97148]]},"properties":{"klass":"minor"}},{"type":"Feature","geometry":{"type":"LineString","coordinates":[[77.62324,12.97314],[77.62397,12.98814]]},"properties":{"klass":"minor"}},{"type":"Feature","geometry":{"type":"LineString","coordinates":[[77.62096,13.0016],[77.62019,13.0166]]},"properties":{"klass":"minor"}},{"type":"Feature","geometry":{"type":"LineString","coordinates":[[77.62161,13.03385],[77.62098,13.04885]]},"properties":{"klass":"minor"}},{"type":"Feature","geometry":{"type":"LineString","coordinates":[[77.6232,13.04646],[77.62318,13.06146]]},"properties":{"klass":"minor"}},{"type":"Feature","geometry":{"type":"LineString","coordinates":[[77.62315,13.06257],[77.62414,13.07757]]},"properties":{"klass":"minor"}},{"type":"Feature","geometry":{"type":"LineString","coordinates":[[77.62092,13.10703],[77.6203,13.12203]]},"properties":{"klass":"minor"}},{"type":"Feature","geometry":{"type":"LineString","coordinates":[[77.629,12.85232],[77.63009,12.86732]]},"properties":{"klass":"minor"}},{"type":"Feature","geometry":{"type":"LineString","coordinates":[[77.62909,12.89667],[77.62927,12.91167]]},"properties":{"klass":"minor"}},{"type":"Feature","geometry":{"type":"LineString","coordinates":[[77.63062,12.91276],[77.63115,12.92776]]},"properties":{"klass":"minor"}},{"type":"Feature","geometry":{"type":"LineString","coordinates":[[77.62956,12.92707],[77.62849,12.94207]]},"properties":{"klass":"minor"}},{"type":"Feature","geometry":{"type":"LineString","coordinates":[[77.62822,12.94238],[77.62803,12.95738]]},"properties":{"klass":"minor"}},{"type":"Feature","geometry":{"type":"LineString","coordinates":[[77.63061,12.95666],[77.63071,12.97166]]},"properties":{"klass":"minor"}},{"type":"Feature","geometry":{"type":"LineString","coordinates":[[77.62998,12.97067],[77.62911,12.98567]]},"properties":{"klass":"minor"}},{"type":"Feature","geometry":{"type":"LineString","coordinates":[[77.63114,12.98825],[77.63144,13.00325]]},"properties":{"klass":"minor"}},{"type":"Feature","geometry":{"type":"LineString","coordinates":[[77.6293,13.00094],[77.62874,13.01594]]},"properties":{"klass":"minor"}},{"type":"Feature","geometry":{"type":"LineString","coordinates":[[77.62846,13.03362],[77.62852,13.04862]]},"properties":{"klass":"minor"}},{"type":"Feature","geometry":{"type":"LineString","coordinates":[[77.63178,13.04934],[77.63105,13.06434]]},"properties":{"klass":"minor"}},{"type":"Feature","geometry":{"type":"LineString","coordinates":[[77.63117,13.09316],[77.63166,13.10816]]},"properties":{"klass":"minor"}},{"type":"Feature","geometry":{"type":"LineString","coordinates":[[77.63848,12.86721],[77.63745,12.88221]]},"properties":{"klass":"minor"}},{"type":"Feature","geometry":{"type":"LineString","coordinates":[[77.63917,12.88232],[77.6382,12.89732]]},"properties":{"klass":"minor"}},{"type":"Feature","geometry":{"type":"LineString","coordinates":[[77.63769,12.91359],[77.63773,12.92859]]},"properties":{"klass":"minor"}},{"type":"Feature","geometry":{"type":"LineString","coordinates":[[77.63936,12.92905],[77.63985,12.94405]]},"properties":{"klass":"minor"}},{"type":"Feature","geometry":{"type":"LineString","coordinates":[[77.63658,12.94344],[77.63592,12.95844]]},"properties":{"klass":"minor"}},{"type":"Feature","geometry":{"type":"LineString","coordinates":[[77.6372,12.95643],[77.63643,12.97143]]},"properties":{"klass":"minor"}},{"type":"Feature","geometry":{"type":"LineString","coordinates":[[77.63882,12.97398],[77.6385,12.98898]]},"properties":{"klass":"minor"}},{"type":"Feature","geometry":{"type":"LineString","coordinates":[[77.6383,12.98728],[77.63747,13.00228]]},"properties":{"klass":"minor"}},{"type":"Feature","geometry":{"type":"LineString","coordinates":[[77.63668,13.00103],[77.63674,13.01603]]},"properties":{"klass":"minor"}},{"type":"Feature","geometry":{"type":"LineString","coordinates":[[77.63656,13.01622],[77.63586,13.03122]]},"properties":{"klass":"minor"}},{"type":"Feature","geometry":{"type":"LineString","coordinates":[[77.63803,13.04804],[77.63745,13.06304]]},"properties":{"klass":"minor"}},{"type":"Feature","geometry":{"type":"LineString","coordinates":[[77.63652,13.07593],[77.6372,13.09093]]},"properties":{"klass":"minor"}},{"type":"Feature","geometry":{"type":"LineString","coordinates":[[77.6442,12.83819],[77.64435,12.85319]]},"properties":{"klass":"minor"}},{"type":"Feature","geometry":{"type":"LineString","coordinates":[[77.64374,12.89597],[77.64333,12.91097]]},"properties":{"klass":"minor"}},{"type":"Feature","geometry":{"type":"LineString","coordinates":[[77.6465,12.91392],[77.64698,12.92892]]},"properties":{"klass":"minor"}},{"type":"Feature","geometry":{"type":"LineString","coordinates":[[77.64339,12.9281],[77.64334,12.9431]]},"properties":{"klass":"minor"}},{"type":"Feature","geometry":{"type":"LineString","coordinates":[[77.64354,12.95711],[77.64283,12.97211]]},"properties":{"klass":"minor"}},{"type":"Feature","geometry":{"type":"LineString","coordinates":[[77.64621,12.97416],[77.6468,12.98916]]},"properties":{"klass":"minor"}},{"type":"Feature","geometry":{"type":"LineString","coordinates":[[77.64532,12.98703],[77.64599,13.00203]]},"properties":{"klass":"minor"}},{"type":"Feature","geometry":{"type":"LineString","coordinates":[[77.6459,13.00075],[77.64602,13.01575]]},"properties":{"klass":"minor"}},{"type":"Feature","geometry":{"type":"LineString","coordinates":[[77.64338,13.01683],[77.6424,13.03183]]},"properties":{"klass":"minor"}},{"type":"Feature","geometry":{"type":"LineString","coordinates":[[77.64346,13.0339],[77.64416,13.0489]]},"properties":{"klass":"minor"}},{"type":"Feature","geometry":{"type":"LineString","coordinates":[[77.64411,13.04706],[77.64391,13.06206]]},"properties":{"klass":"minor"}},{"type":"Feature","geometry":{"type":"LineString","coordinates":[[77.64508,13.06431],[77.64402,13.07931]]},"properties":{"klass":"minor"}},{"type":"Feature","geometry":{"type":"LineString","coordinates":[[77.65265,12.83734],[77.65261,12.85234]]},"properties":{"klass":"minor"}},{"type":"Feature","geometry":{"type":"LineString","coordinates":[[77.6526,12.85236],[77.65349,12.86736]]},"properties":{"klass":"minor"}},{"type":"Feature","geometry":{"type":"LineString","coordinates":[[77.65327,12.91203],[77.65387,12.92703]]},"properties":{"klass":"minor"}},{"type":"Feature","geometry":{"type":"LineString","coordinates":[[77.65306,12.92609],[77.65368,12.94109]]},"properties":{"klass":"minor"}},{"type":"Feature","geometry":{"type":"LineString","coordinates":[[77.6542,12.94151],[77.65525,12.95651]]},"properties":{"klass":"minor"}},{"type":"Feature","geometry":{"type":"LineString","coordinates":[[77.65182,12.95718],[77.65126,12.97218]]},"properties":{"klass":"minor"}},{"type":"Feature","geometry":{"type":"LineString","coordinates":[[77.65297,12.97241],[77.65382,12.98741]]},"properties":{"klass":"minor"}},{"type":"Feature","geometry":{"type":"LineString","coordinates":[[77.65327,12.98872],[77.6535,13.00372]]},"properties":{"klass":"minor"}},{"type":"Feature","geometry":{"type":"LineString","coordinates":[[77.65423,13.0028],[77.65379,13.0178]]},"properties":{"klass":"minor"}},{"type":"Feature","geometry":{"type":"LineString","coordinates":[[77.65136,13.01748],[77.65047,13.03248]]},"properties":{"klass":"minor"}},{"type":"Feature","geometry":{"type":"LineString","coordinates":[[77.65309,13.03293],[77.6542,13.04793]]},"properties":{"klass":"minor"}},{"type":"Feature","geometry":{"type":"LineString","coordinates":[[77.65408,13.07781],[77.65355,13.09281]]},"properties":{"klass":"minor"}},{"type":"Feature","geometry":{"type":"LineString","coordinates":[[77.65395,13.10741],[77.65365,13.12241]]},"properties":{"klass":"minor"}},{"type":"Feature","geometry":{"type":"LineString","coordinates":[[77.65858,12.83575],[77.65824,12.85075]]},"properties":{"klass":"minor"}},{"type":"Feature","geometry":{"type":"LineString","coordinates":[[77.66053,12.86856],[77.6595,12.88356]]},"properties":{"klass":"minor"}},{"type":"Feature","geometry":{"type":"LineString","coordinates":[[77.65973,12.89745],[77.65942,12.91245]]},"properties":{"klass":"minor"}},{"type":"Feature","geometry":{"type":"LineString","coordinates":[[77.66096,12.92893],[77.66148,12.94393]]},"properties":{"klass":"minor"}},{"type":"Feature","geometry":{"type":"LineString","coordinates":[[77.65998,12.94404],[77.66066,12.95904]]},"properties":{"klass":"minor"}},{"type":"Feature","geometry":{"type":"LineString","coordinates":[[77.65914,12.95682],[77.65882,12.97182]]},"properties":{"klass":"minor"}},{"type":"Feature","geometry":{"type":"LineString","coordinates":[[77.6591,12.97325],[77.65896,12.98825]]},"properties":{"klass":"minor"}},{"type":"Feature","geometry":{"type":"LineString","coordinates":[[77.66017,13.01927],[77.65947,13.03427]]},"properties":{"klass":"minor"}},{"type":"Feature","geometry":{"type":"LineString","coordinates":[[77.6589,13.04774],[77.65809,13.06274]]},"properties":{"klass":"minor"}},{"type":"Feature","geometry":{"type":"LineString","coordinates":[[77.66083,13.06276],[77.66112,13.07776]]},"properties":{"klass":"minor"}},{"type":"Feature","geometry":{"type":"LineString","coordinates":[[77.66604,12.8686],[77.66558,12.8836]]},"properties":{"klass":"minor"}},{"type":"Feature","geometry":{"type":"LineString","coordinates":[[77.6668,12.91383],[77.66706,12.92883]]},"properties":{"klass":"minor"}},{"type":"Feature","geometry":{"type":"LineString","coordinates":[[77.66886,12.92896],[77.6688,12.94396]]},"properties":{"klass":"minor"}},{"type":"Feature","geometry":{"type":"LineString","coordinates":[[77.6673,12.94155],[77.66692,12.95655]]},"properties":{"klass":"minor"}},{"type":"Feature","geometry":{"type":"LineString","coordinates":[[77.66747,12.97163],[77.66698,12.98663]]},"properties":{"klass":"minor"}},{"type":"Feature","geometry":{"type":"LineString","coordinates":[[77.66671,13.00427],[77.66604,13.01927]]},"properties":{"klass":"minor"}},{"type":"Feature","geometry":{"type":"LineString","coordinates":[[77.66627,13.01673],[77.66545,13.03173]]},"properties":{"klass":"minor"}},{"type":"Feature","geometry":{"type":"LineString","coordinates":[[77.67515,12.85175],[77.67543,12.86675]]},"properties":{"klass":"minor"}},{"type":"Feature","geometry":{"type":"LineString","coordinates":[[77.67658,12.86706],[77.67687,12.88206]]},"properties":{"klass":"minor"}},{"type":"Feature","geometry":{"type":"LineString","coordinates":[[77.67433,12.88343],[77.67504,12.89843]]},"properties":{"klass":"minor"}},{"type":"Feature","geometry":{"type":"LineString","coordinates":[[77.67342,12.89807],[77.67337,12.91307]]},"properties":{"klass":"minor"}},{"type":"Feature","geometry":{"type":"LineString","coordinates":[[77.67619,12.92798],[77.67516,12.94298]]},"properties":{"klass":"minor"}},{"type":"Feature","geometry":{"type":"LineString","coordinates":[[77.67472,12.98704],[77.67365,13.00204]]},"properties":{"klass":"minor"}},{"type":"Feature","geometry":{"type":"LineString","coordinates":[[77.67612,13.00278],[77.676,13.01778]]},"properties":{"klass":"minor"}},{"type":"Feature","geometry":{"type":"LineString","coordinates":[[77.67612,13.03083],[77.67705,13.04583]]},"properties":{"klass":"minor"}},{"type":"Feature","geometry":{"type":"LineString","coordinates":[[77.67382,13.06246],[77.67284,13.07746]]},"properties":{"klass":"minor"}},{"type":"Feature","geometry":{"type":"LineString","coordinates":[[77.67391,13.07882],[77.67333,13.09382]]},"properties":{"klass":"minor"}},{"type":"Feature","geometry":{"type":"LineString","coordinates":[[77.68386,12.83896],[77.68378,12.85396]]},"properties":{"klass":"minor"}},{"type":"Feature","geometry":{"type":"LineString","coordinates":[[77.68378,12.85286],[77.68473,12.86786]]},"properties":{"klass":"minor"}},{"type":"Feature","geometry":{"type":"LineString","coordinates":[[77.68375,12.86916],[77.6847,12.88416]]},"properties":{"klass":"minor"}},{"type":"Feature","geometry":{"type":"LineString","coordinates":[[77.68277,12.88307],[77.68263,12.89807]]},"properties":{"klass":"minor"}},{"type":"Feature","geometry":{"type":"LineString","coordinates":[[77.6833,12.89617],[77.68397,12.91117]]},"properties":{"klass":"minor"}},{"type":"Feature","geometry":{"type":"LineString","coordinates":[[77.68209,12.92911],[77.68128,12.94411]]},"properties":{"klass":"minor"}},{"type":"Feature","geometry":{"type":"LineString","coordinates":[[77.68136,12.95649],[77.682,12.97149]]},"properties":{"klass":"minor"}},{"type":"Feature","geometry":{"type":"LineString","coordinates":[[77.68299,13.01904],[77.68328,13.03404]]},"properties":{"klass":"minor"}},{"type":"Feature","geometry":{"type":"LineString","coordinates":[[77.68413,13.06138],[77.6832,13.07638]]},"properties":{"klass":"minor"}},{"type":"Feature","geometry":{"type":"LineString","coordinates":[[77.68184,13.07659],[77.68091,13.09159]]},"properties":{"klass":"minor"}},{"type":"Feature","geometry":{"type":"LineString","coordinates":[[77.69002,12.86842],[77.69048,12.88342]]},"properties":{"klass":"minor"}},{"type":"Feature","geometry":{"type":"LineString","coordinates":[[77.68821,12.88241],[77.68786,12.89741]]},"properties":{"klass":"minor"}},{"type":"Feature","geometry":{"type":"LineString","coordinates":[[77.68912,12.89762],[77.68904,12.91262]]},"properties":{"klass":"minor"}},{"type":"Feature","geometry":{"type":"LineString","coordinates":[[77.69012,12.92875],[77.69053,12.94375]]},"properties":{"klass":"minor"}},{"type":"Feature","geometry":{"type":"LineString","coordinates":[[77.68978,12.97373],[77.68931,12.98873]]},"properties":{"klass":"minor"}},{"type":"Feature","geometry":{"type":"LineString","coordinates":[[77.68862,13.00301],[77.68902,13.01801]]},"properties":{"klass":"minor"}},{"type":"Feature","geometry":{"type":"LineString","coordinates":[[77.69006,13.01669],[77.69023,13.03169]]},"properties":{"klass":"minor"}},{"type":"Feature","geometry":{"type":"LineString","coordinates":[[77.69023,13.06113],[77.69,13.07613]]},"properties":{"klass":"minor"}},{"type":"Feature","geometry":{"type":"LineString","coordinates":[[77.69815,12.86583],[77.69708,12.88083]]},"properties":{"klass":"minor"}},{"type":"Feature","geometry":{"type":"LineString","coordinates":[[77.69661,12.9262],[77.69771,12.9412]]},"properties":{"klass":"minor"}},{"type":"Feature","geometry":{"type":"LineString","coordinates":[[77.69849,12.9577],[77.69768,12.9727]]},"properties":{"klass":"minor"}},{"type":"Feature","geometry":{"type":"LineString","coordinates":[[77.69739,12.97262],[77.69808,12.98762]]},"properties":{"klass":"minor"}},{"type":"Feature","geometry":{"type":"LineString","coordinates":[[77.69648,12.98646],[77.69609,13.00146]]},"properties":{"klass":"minor"}},{"type":"Feature","geometry":{"type":"LineString","coordinates":[[77.69904,13.00077],[77.69958,13.01577]]},"properties":{"klass":"minor"}},{"type":"Feature","geometry":{"type":"LineString","coordinates":[[77.69891,13.01767],[77.69818,13.03267]]},"properties":{"klass":"minor"}},{"type":"Feature","geometry":{"type":"LineString","coordinates":[[77.69601,13.04809],[77.69659,13.06309]]},"properties":{"klass":"minor"}},{"type":"Feature","geometry":{"type":"LineString","coordinates":[[77.69597,13.0625],[77.69649,13.0775]]},"properties":{"klass":"minor"}},{"type":"Feature","geometry":{"type":"LineString","coordinates":[[77.69669,13.07713],[77.69678,13.09213]]},"properties":{"klass":"minor"}},{"type":"Feature","geometry":{"type":"LineString","coordinates":[[77.70686,12.86791],[77.70693,12.88291]]},"properties":{"klass":"minor"}},{"type":"Feature","geometry":{"type":"LineString","coordinates":[[77.70481,12.91148],[77.70424,12.92648]]},"properties":{"klass":"minor"}},{"type":"Feature","geometry":{"type":"LineString","coordinates":[[77.70354,12.94247],[77.70431,12.95747]]},"properties":{"klass":"minor"}},{"type":"Feature","geometry":{"type":"LineString","coordinates":[[77.70329,12.95729],[77.70379,12.97229]]},"properties":{"klass":"minor"}},{"type":"Feature","geometry":{"type":"LineString","coordinates":[[77.70551,12.97116],[77.70604,12.98616]]},"properties":{"klass":"minor"}},{"type":"Feature","geometry":{"type":"LineString","coordinates":[[77.7045,13.019],[77.70478,13.034]]},"properties":{"klass":"minor"}},{"type":"Feature","geometry":{"type":"LineString","coordinates":[[77.7038,13.03371],[77.70468,13.04871]]},"properties":{"klass":"minor"}},{"type":"Feature","geometry":{"type":"LineString","coordinates":[[77.70555,13.04921],[77.70577,13.06421]]},"properties":{"klass":"minor"}},{"type":"Feature","geometry":{"type":"LineString","coordinates":[[77.71428,12.83932],[77.71332,12.85432]]},"properties":{"klass":"minor"}},{"type":"Feature","geometry":{"type":"LineString","coordinates":[[77.71183,12.91342],[77.71143,12.92842]]},"properties":{"klass":"minor"}},{"type":"Feature","geometry":{"type":"LineString","coordinates":[[77.71111,12.95892],[77.71117,12.97392]]},"properties":{"klass":"minor"}},{"type":"Feature","geometry":{"type":"LineString","coordinates":[[77.71393,12.9738],[77.71438,12.9888]]},"properties":{"klass":"minor"}},{"type":"Feature","geometry":{"type":"LineString","coordinates":[[77.71211,13.00302],[77.71162,13.01802]]},"properties":{"klass":"minor"}},{"type":"Feature","geometry":{"type":"LineString","coordinates":[[77.71165,13.01637],[77.71251,13.03137]]},"properties":{"klass":"minor"}},{"type":"Feature","geometry":{"type":"LineString","coordinates":[[77.71411,13.06232],[77.71522,13.07732]]},"properties":{"klass":"minor"}},{"type":"Feature","geometry":{"type":"LineString","coordinates":[[77.71258,13.07749],[77.71161,13.09249]]},"properties":{"klass":"minor"}},{"type":"Feature","geometry":{"type":"LineString","coordinates":[[77.71339,13.10756],[77.71237,13.12256]]},"properties":{"klass":"minor"}},{"type":"Feature","geometry":{"type":"LineString","coordinates":[[77.71828,12.88145],[77.71876,12.89645]]},"properties":{"klass":"minor"}},{"type":"Feature","geometry":{"type":"LineString","coordinates":[[77.72058,12.89615],[77.72016,12.91115]]},"properties":{"klass":"minor"}},{"type":"Feature","geometry":{"type":"LineString","coordinates":[[77.72081,12.9435],[77.72192,12.9585]]},"properties":{"klass":"minor"}},{"type":"Feature","geometry":{"type":"LineString","coordinates":[[77.71834,12.97149],[77.71832,12.98649]]},"properties":{"klass":"minor"}},{"type":"Feature","geometry":{"type":"LineString","coordinates":[[77.7213,13.00286],[77.72049,13.01786]]},"properties":{"klass":"minor"}},{"type":"Feature","geometry":{"type":"LineString","coordinates":[[77.71924,13.01857],[77.71826,13.03357]]},"properties":{"klass":"minor"}},{"type":"Feature","geometry":{"type":"LineString","coordinates":[[77.72139,13.07683],[77.72178,13.09183]]},"properties":{"klass":"minor"}},{"type":"Feature","geometry":{"type":"LineString","coordinates":[[77.72776,12.85131],[77.72749,12.86631]]},"properties":{"klass":"minor"}},{"type":"Feature","geometry":{"type":"LineString","coordinates":[[77.72728,12.86782],[77.72679,12.88282]]},"properties":{"klass":"minor"}},{"type":"Feature","geometry":{"type":"LineString","coordinates":[[77.72596,12.88065],[77.72686,12.89565]]},"properties":{"klass":"minor"}},{"type":"Feature","geometry":{"type":"LineString","coordinates":[[77.72661,12.94402],[77.72715,12.95902]]},"properties":{"klass":"minor"}},{"type":"Feature","geometry":{"type":"LineString","coordinates":[[77.72784,12.97155],[77.72758,12.98655]]},"properties":{"klass":"minor"}},{"type":"Feature","geometry":{"type":"LineString","coordinates":[[77.72889,12.98877],[77.72809,13.00377]]},"properties":{"klass":"minor"}},{"type":"Feature","geometry":{"type":"LineString","coordinates":[[77.72908,13.00104],[77.72904,13.01604]]},"properties":{"klass":"minor"}},{"type":"Feature","geometry":{"type":"LineString","coordinates":[[77.72622,13.07801],[77.72682,13.09301]]},"properties":{"klass":"minor"}},{"type":"Feature","geometry":{"type":"LineString","coordinates":[[77.73363,12.91276],[77.73296,12.92776]]},"properties":{"klass":"minor"}},{"type":"Feature","geometry":{"type":"LineString","coordinates":[[77.73529,12.94358],[77.73526,12.95858]]},"properties":{"klass":"minor"}},{"type":"Feature","geometry":{"type":"LineString","coordinates":[[77.73474,12.95803],[77.73405,12.97303]]},"properties":{"klass":"minor"}},{"type":"Feature","geometry":{"type":"LineString","coordinates":[[77.74166,12.86636],[77.74146,12.88136]]},"properties":{"klass":"minor"}},{"type":"Feature","geometry":{"type":"LineString","coordinates":[[77.74252,12.94079],[77.74332,12.95579]]},"properties":{"klass":"minor"}},{"type":"Feature","geometry":{"type":"LineString","coordinates":[[77.74067,12.95785],[77.74002,12.97285]]},"properties":{"klass":"minor"}},{"type":"Feature","geometry":{"type":"LineString","coordinates":[[77.74211,12.98609],[77.74314,13.00109]]},"properties":{"klass":"minor"}},{"type":"Feature","geometry":{"type":"LineString","coordinates":[[77.74178,13.00255],[77.74119,13.01755]]},"properties":{"klass":"minor"}},{"type":"Feature","geometry":{"type":"LineString","coordinates":[[77.74311,13.01589],[77.74356,13.03089]]},"properties":{"klass":"minor"}},{"type":"Feature","geometry":{"type":"LineString","coordinates":[[77.74287,13.06404],[77.74195,13.07904]]},"properties":{"klass":"minor"}},{"type":"Feature","geometry":{"type":"LineString","coordinates":[[77.74329,13.07589],[77.74291,13.09089]]},"properties":{"klass":"minor"}},{"type":"Feature","geometry":{"type":"LineString","coordinates":[[77.74997,12.97301],[77.74964,12.98801]]},"properties":{"klass":"minor"}},{"type":"Feature","geometry":{"type":"LineString","coordinates":[[77.74965,13.0013],[77.74959,13.0163]]},"properties":{"klass":"minor"}},{"type":"Feature","geometry":{"type":"LineString","coordinates":[[77.75137,13.03178],[77.75203,13.04678]]},"properties":{"klass":"minor"}},{"type":"Feature","geometry":{"type":"LineString","coordinates":[[77.75566,12.9109],[77.75514,12.9259]]},"properties":{"klass":"minor"}},{"type":"Feature","geometry":{"type":"LineString","coordinates":[[77.75811,12.97331],[77.7587,12.98831]]},"properties":{"klass":"minor"}},{"type":"Feature","geometry":{"type":"LineString","coordinates":[[77.76502,12.94414],[77.76599,12.95914]]},"properties":{"klass":"minor"}},{"type":"Feature","geometry":{"type":"LineString","coordinates":[[77.76366,13.00281],[77.76266,13.01781]]},"properties":{"klass":"minor"}},{"type":"Feature","geometry":{"type":"LineString","coordinates":[[77.76362,13.01858],[77.76396,13.03358]]},"properties":{"klass":"minor"}},{"type":"Feature","geometry":{"type":"LineString","coordinates":[[77.7658,13.0331],[77.76517,13.0481]]},"properties":{"klass":"minor"}},{"type":"Feature","geometry":{"type":"LineString","coordinates":[[77.76362,13.06236],[77.76365,13.07736]]},"properties":{"klass":"minor"}},{"type":"Feature","geometry":{"type":"LineString","coordinates":[[77.77193,12.94079],[77.77254,12.95579]]},"properties":{"klass":"minor"}},{"type":"Feature","geometry":{"type":"LineString","coordinates":[[77.77321,12.98883],[77.77386,13.00383]]},"properties":{"klass":"minor"}},{"type":"Feature","geometry":{"type":"LineString","coordinates":[[77.77345,13.04613],[77.77382,13.06113]]},"properties":{"klass":"minor"}},{"type":"Feature","geometry":{"type":"LineString","coordinates":[[77.78113,13.00238],[77.78086,13.01738]]},"properties":{"klass":"minor"}},{"type":"Feature","geometry":{"type":"LineString","coordinates":[[77.78143,13.03191],[77.78218,13.04691]]},"properties":{"klass":"minor"}}]}